{"type": "FeatureCollection", "features": [{"type": "Feature", "properties": {"pixel_count": 42, "area_ha": 1.68}, "geometry": {"type": "Polygon", "coordinates": [[[23.17691558704481, 38.98963029171708], [23.176910067819822, 38.98945019463753], [23.17667930028247, 38.9894545017397], [23.17667378169083, 38.98927440462641], [23.17644301468802, 38.989278711245085], [23.176431978820812, 38.9889185169448], [23.176201212936483, 38.98892282305249], [23.17617914413046, 38.98820243426713], [23.17687143462821, 38.98818951490614], [23.176865915798444, 38.98800941777673], [23.177327441382133, 38.988000802644564], [23.177332961379715, 38.988180899718955], [23.177563724681352, 38.98817659144141], [23.17760237013545, 38.98943727059506], [23.17737160274632, 38.9894415790652], [23.177377123139205, 38.989621676089726], [23.17691558704481, 38.98963029171708]]]}}]}