{
  "type": "FeatureCollection",
  "features": [
    {
      "type": "Feature",
      "properties": {
        "synthetic": true
      },
      "geometry": {
        "type": "Polygon",
        "coordinates": [
          [
            [
              91.87639252639214,
              56.207121175884076
            ],
            [
              91.87649759542953,
              56.20352800975238
            ],
            [
              91.88294385637808,
              56.20358640103174
            ],
            [
              91.88283938988332,
              56.207179575040485
            ],
            [
              91.87639252639214,
              56.207121175884076
            ]
          ]
        ]
      }
    }
  ]
}
