{"type": "FeatureCollection", "features": [{"type": "Feature", "properties": {"pixel_count": 234, "area_ha": 9.36}, "geometry": {"type": "Polygon", "coordinates": [[[26.208750775036354, 41.12468428752463], [26.208752938995357, 41.12450414386649], [26.2085147050715, 41.12450250732212], [26.208516869662244, 41.124322363668554], [26.208040403176174, 41.1243190891227], [26.208042569050004, 41.12413894548403], [26.207804336487794, 41.12413730748256], [26.207810835945466, 41.12359687656308], [26.207572605356958, 41.12359523810002], [26.20757693953315, 41.1232349508123], [26.207815168819, 41.12323658925469], [26.207817335226284, 41.12305644559188], [26.207340877976907, 41.123053168235174], [26.207338710266963, 41.12323331187732], [26.20710048102044, 41.1232316724498], [26.207102649381707, 41.123051528817996], [26.206149735197638, 41.123044966223674], [26.20615407707169, 41.12268467902554], [26.205915849877517, 41.12268303716626], [26.205920192975412, 41.12232274996587], [26.205443741251372, 41.122319464811085], [26.205445914073366, 41.12213932122299], [26.205207688892198, 41.12213767791714], [26.20520986234577, 41.121957534333646], [26.20544808687565, 41.12195917762913], [26.20545025965822, 41.12177903402952], [26.205212035779628, 41.1217773907444], [26.2052163825882, 41.12141710354867], [26.20545460516425, 41.121418746813085], [26.20545243242109, 41.12159889042418], [26.205928878934845, 41.1216021754961], [26.205931050375465, 41.121422031864306], [26.205692827760007, 41.121420389584955], [26.205697171884683, 41.12106010232481], [26.20617361453025, 41.12106338634957], [26.20617144378028, 41.121243530003206], [26.206647887807122, 41.121246812078574], [26.206645718339992, 41.12142695574717], [26.206883941034196, 41.121428596056404], [26.206886109850057, 41.12124845237746], [26.207124331912667, 41.121250092183814], [26.2071265000576, 41.121069948488795], [26.20688827864625, 41.12106830869278], [26.206890447422772, 41.120888165002356], [26.207128668182868, 41.120889804788035], [26.207130836288467, 41.12070966108153], [26.207607276565156, 41.120712939154664], [26.20760944334861, 41.12053279542175], [26.208085882401424, 41.12053607150417], [26.208090213304434, 41.12017578397978], [26.208328431557835, 41.12017742126157], [26.208330596328654, 41.11999727748043], [26.208568813950464, 41.11999891425939], [26.208566649830875, 41.12017905805086], [26.20904308643583, 41.1201823301519], [26.209040923599073, 41.120362473958224], [26.208802704635552, 41.12036083814365], [26.2087983776007, 41.120721125718475], [26.20832193712757, 41.1207178525705], [26.208319772278212, 41.12089799632866], [26.208557993156212, 41.12089963315922], [26.208553664701103, 41.12125992067892], [26.20879188690125, 41.1212615570376], [26.20879621405384, 41.12090126949725], [26.209034434971095, 41.120902905342774], [26.20902794616655, 41.12144333667562], [26.20974261489735, 41.12144824134981], [26.20973613177776, 41.121988672723695], [26.209974356681077, 41.12199030666094], [26.20996355434624, 41.12289102555401], [26.20972532618641, 41.12288939156528], [26.20971884259637, 41.12342982280128], [26.209480612502155, 41.12342818828907], [26.209482774369775, 41.12324804455977], [26.209006315542847, 41.12324477407827], [26.209001989182667, 41.12360506148987], [26.209478450614935, 41.1236083320126], [26.2094762887081, 41.1237884757304], [26.209238057330815, 41.123786840705], [26.20923373215561, 41.124147128102734], [26.208995499495234, 41.124145492564146], [26.20898900963121, 41.12468592358673], [26.208750775036354, 41.12468428752463]], [[26.208519034233355, 41.12414222000924], [26.20875726685448, 41.12414385653298], [26.208761594635096, 41.1237835691765], [26.208046900738733, 41.12377865818947], [26.20804473490419, 41.12395880183963], [26.20852119878483, 41.12396207634419], [26.208519034233355, 41.12414222000924]], [[26.20900847869351, 41.123064630363864], [26.209484936217777, 41.12306790082476], [26.20949358341372, 41.12234732582717], [26.209255357247027, 41.12234569088423], [26.20925103238566, 41.12270597837391], [26.209012804935966, 41.12270434291781], [26.20900847869351, 41.123064630363864]], [[26.206390134009688, 41.122866464004545], [26.20686658979909, 41.12286974528103], [26.20686875877233, 41.12268960164805], [26.206392304285554, 41.12268632039226], [26.206390134009688, 41.122866464004545]], [[26.208778904972483, 41.12234241952074], [26.209017131099944, 41.122344055448764], [26.209019294152505, 41.12216391170562], [26.20878106867634, 41.122162275787915], [26.208778904972483, 41.12234241952074]], [[26.206162760583506, 41.12196410456035], [26.206639209820537, 41.12196738671847], [26.206643548853187, 41.12160709941002], [26.206167102221272, 41.12160381729328], [26.206162760583506, 41.12196410456035]], [[26.208308947736878, 41.121798715033236], [26.20854717187121, 41.1218003519154], [26.208549336167472, 41.12162020817566], [26.208311112684417, 41.12161857130383], [26.208308947736878, 41.121798715033236]], [[26.20831327761232, 41.12143842756864], [26.208551500444102, 41.12144006443017], [26.208553664701103, 41.12125992067892], [26.208315442520586, 41.12125828382772], [26.20831327761232, 41.12143842756864]], [[26.208324101957295, 41.12053770880661], [26.208562321532803, 41.120539345616535], [26.208564485691653, 41.12035920183656], [26.208326266767383, 41.12035756503695], [26.208324101957295, 41.12053770880661]]]}}, {"type": "Feature", "properties": {"pixel_count": 102, "area_ha": 4.08}, "geometry": {"type": "Polygon", "coordinates": [[[26.211631152013446, 41.12290244968365], [26.211637619795617, 41.122362018148955], [26.211399393452666, 41.12236038763895], [26.211401549992246, 41.12218024379285], [26.211163324320154, 41.12217861280058], [26.211167638643214, 41.1218183251117], [26.21092941429327, 41.121816693647446], [26.210935887584938, 41.1212762621019], [26.21069766520839, 41.12127463017598], [26.210699823584402, 41.12109448632627], [26.210461601878688, 41.12109285391812], [26.21046376088638, 41.120912710072936], [26.21022553985151, 41.12091107718255], [26.210223380192563, 41.12109122101742], [26.20998515852602, 41.121089587624226], [26.209989479126836, 41.120729299969305], [26.209751258782397, 41.12072766610418], [26.209753419704658, 41.12054752227842], [26.209515200031063, 41.12054588793107], [26.209519523119255, 41.1201856002829], [26.21023417829142, 41.12019050178559], [26.210232018710823, 41.12037064564345], [26.209993799649276, 41.12036901229143], [26.209991639397852, 41.12054915613325], [26.210468078843014, 41.12055242236536], [26.21046591987449, 41.12073256622202], [26.21070414027769, 41.1207341986096], [26.210701981940836, 41.120914342470805], [26.210940203014864, 41.120915974376146], [26.21094451836651, 41.12055568662741], [26.211182738157614, 41.12055731801967], [26.21118489515284, 41.12037717412639], [26.211661333491257, 41.12038043541279], [26.211663489164454, 41.120200291493205], [26.2114252706367, 41.12019866110655], [26.21143173949264, 41.11965822934419], [26.211193522938107, 41.119656598495865], [26.21119783671336, 41.119296310646114], [26.211436051965475, 41.11929794147389], [26.211433895738836, 41.11947808541191], [26.211672111661713, 41.11947971575745], [26.211665644818094, 41.12002014756789], [26.211903862714173, 41.12002177745176], [26.211901707711757, 41.12020192138736], [26.212378144865003, 41.12020517969813], [26.21237599114551, 41.12038532364852], [26.212614210402673, 41.120386952075414], [26.212618516519658, 41.12002666414834], [26.21238029856496, 41.12002503574199], [26.212382452245382, 41.119844891780104], [26.212144234961443, 41.119843262891514], [26.212146389273546, 41.11966311893417], [26.21238460590627, 41.119664747812486], [26.212382452245382, 41.119844891780104], [26.21262066954886, 41.119846520176196], [26.212618516519658, 41.12002666414834], [26.212856734493883, 41.12002829206219], [26.212854582096387, 41.12020843603887], [26.21309280074136, 41.120210063470466], [26.213090648975577, 41.12039020745164], [26.212852429679362, 41.12038858000979], [26.21285027724282, 41.120568723974976], [26.213088497190274, 41.12057035142709], [26.213084193561116, 41.12093063936072], [26.21284597231116, 41.12092901188809], [26.212848124786753, 41.1207488679344], [26.212609904207575, 41.12074723997951], [26.212607751080732, 41.120927383922925], [26.21236952986983, 41.12092575546524], [26.212367376072198, 41.12110589939265], [26.21260559793436, 41.1211075278606], [26.212603444768455, 41.121287671792544], [26.21284166730141, 41.12128929977823], [26.212837362213566, 41.12164958764541], [26.212599138378064, 41.1216479596392], [26.21259698515357, 41.12182810355389], [26.211882311810427, 41.12182321654922], [26.21188015661254, 41.12200336042738], [26.212118381692004, 41.122004989931746], [26.212116227125865, 41.12218513381441], [26.213069130244254, 41.122191646947535], [26.21306697826377, 41.12237179086553], [26.21282875180358, 41.12237016331081], [26.212826599152272, 41.1225503072128], [26.2125883720603, 41.12254867915526], [26.212586218738156, 41.122728823041236], [26.212347991014404, 41.12272719448087], [26.21235014498786, 41.12254705060518], [26.2125883720603, 41.12254867915526], [26.212590525362916, 41.12236853526353], [26.211875846158126, 41.12236364816642], [26.211873690901594, 41.12254379202735], [26.212111917934955, 41.122545421562535], [26.212109763310185, 41.12272556542797], [26.211871535625512, 41.12272393588252], [26.211869380329887, 41.122904079731946], [26.211631152013446, 41.12290244968365]], [[26.211637619795617, 41.122362018148955], [26.211875846158126, 41.12236364816642], [26.21187800139511, 41.12218350429977], [26.211639775683903, 41.122181874292586], [26.211637619795617, 41.122362018148955]], [[26.211171952888012, 41.121458037399854], [26.211410175954967, 41.12145966835099], [26.21141233239675, 41.12127952447616], [26.211174109981062, 41.121277893535286], [26.211171952888012, 41.121458037399854]], [[26.211648399041483, 41.121461298809606], [26.21212484527317, 41.121464558249244], [26.212126999761143, 41.12128441434358], [26.2118887772868, 41.1212827848803], [26.21189093240649, 41.12110264097918], [26.211414488818974, 41.1210993805956], [26.21141233239675, 41.12127952447616], [26.211650554831998, 41.12128115492449], [26.211648399041483, 41.121461298809606]], [[26.21189524258724, 41.120742353159685], [26.21213346310781, 41.12074398259214], [26.212137771907884, 41.12038369472913], [26.211899552689797, 41.12038206531721], [26.21189524258724, 41.120742353159685]]]}}, {"type": "Feature", "properties": {"pixel_count": 232, "area_ha": 9.28}, "geometry": {"type": "Polygon", "coordinates": [[[26.202095489336937, 41.12337727409876], [26.20209767139577, 41.12319713069045], [26.201859442583302, 41.12319548042662], [26.201861625273665, 41.12301533702298], [26.200908712827104, 41.12300873108371], [26.200910898102922, 41.122828587715965], [26.200672670692136, 41.12282693501018], [26.200674856599445, 41.12264679164709], [26.200436629859787, 41.12264513845919], [26.20043881639857, 41.122464995100785], [26.19996236428137, 41.12246168726817], [26.199964552102905, 41.12228154392486], [26.19948810136767, 41.12227823414294], [26.199485912243542, 41.12245837746536], [26.199009460285144, 41.12245506569239], [26.19901384111871, 41.12209477908354], [26.199966739904603, 41.12210140057583], [26.199968927686456, 41.12192125722105], [26.199730703611486, 41.12191960259722], [26.19973289202477, 41.1217394592471], [26.198065328615026, 41.1217278631624], [26.198067521567356, 41.12154771987966], [26.197829298953895, 41.12154606133645], [26.1978314925376, 41.121365918058416], [26.197593270595295, 41.12136425903314], [26.19759546481036, 41.12118411575982], [26.197357243539216, 41.12118245625249], [26.197361633212136, 41.12082216970951], [26.197123413263398, 41.120820509730585], [26.197127804159162, 41.12046022318557], [26.19736602280543, 41.12046188314355], [26.197368217572215, 41.12028173985193], [26.197606435587158, 41.12028339930696], [26.19760862968282, 41.12010325599914], [26.19784684706644, 41.120104914951206], [26.19785342728038, 41.119564484961884], [26.197615211850383, 41.11956282604122], [26.197617405866442, 41.119382682710395], [26.19785562064524, 41.11938434162061], [26.19786000731527, 41.11902405492084], [26.198098220811577, 41.11902571331766], [26.198096028137694, 41.11920585668088], [26.198572456492343, 41.11920917201795], [26.198570265100958, 41.11938931539632], [26.198808479959293, 41.11939097233659], [26.198810670699483, 41.11921082894777], [26.199287099173368, 41.11921414132991], [26.199282720277907, 41.119574428143586], [26.199520935847033, 41.119576083616806], [26.19951874702072, 41.11975622702544], [26.200233395800815, 41.11976119052141], [26.200231208908285, 41.119941333955595], [26.200469425859204, 41.11994298747969], [26.20046723959806, 41.12012313091856], [26.19999080441361, 41.12011982335703], [26.19998642922692, 41.12048011017581], [26.199748210362003, 41.12047845563543], [26.19974602208766, 41.12065859902577], [26.199507802591352, 41.12065694398244], [26.199505613645915, 41.1208370873566], [26.199743833793462, 41.120838742410356], [26.19974164547942, 41.12101888578921], [26.20021808713655, 41.12102219444004], [26.200222461139806, 41.120661907634876], [26.200460680695638, 41.120663561200665], [26.200462867016274, 41.12048341777904], [26.201653961836588, 41.120491678168186], [26.201651778772135, 41.120671821641885], [26.201889998446863, 41.12067347225258], [26.20188345108845, 41.12121390267042], [26.202121672736716, 41.12121555281981], [26.20211949089558, 41.121395696291344], [26.201881268596054, 41.121394046131535], [26.201876903551874, 41.12175433303653], [26.202115127153945, 41.121755983217135], [26.20211076333315, 41.122116270119946], [26.202348988257572, 41.12211791982882], [26.20234680696878, 41.122298063282], [26.202585032564283, 41.12229971250873], [26.202576309816475, 41.123020286305604], [26.202099853434813, 41.12301698727641], [26.20209767139577, 41.12319713069045], [26.202335900228032, 41.12319878046173], [26.202333718820526, 41.123378923880445], [26.202095489336937, 41.12337727409876]], [[26.201149125533533, 41.12283023992919], [26.20186380794423, 41.12283519361358], [26.201868173225964, 41.12247490677756], [26.20162994703854, 41.1224732560628], [26.201632130301007, 41.12229311264655], [26.20139390478468, 41.12229146144966], [26.201398272552783, 41.121931174620784], [26.20092182418471, 41.12192787079101], [26.200919639007996, 41.1221080141875], [26.20115786383341, 41.12210966635905], [26.2011534947231, 41.12246995315563], [26.201391720870916, 41.12247160485548], [26.20138953693734, 41.12265174825555], [26.201151310138222, 41.12265009654528], [26.201149125533533, 41.12283023992919]], [[26.20044100291752, 41.12228485173663], [26.200679228354577, 41.122286504903705], [26.200683600030406, 41.121926218137325], [26.20044537589592, 41.121924564991104], [26.20044100291752, 41.12228485173663]], [[26.199968927686456, 41.12192125722105], [26.20020715178127, 41.121922911352335], [26.200209338892, 41.121742767981374], [26.199971115448463, 41.1217411138605], [26.199968927686456, 41.12192125722105]], [[26.199258634932917, 41.12155600520773], [26.199496857665633, 41.12155766079576], [26.199499046690487, 41.121377517444586], [26.199260824609034, 41.121375861867], [26.199258634932917, 41.12155600520773]], [[26.199735080418208, 41.12155931589125], [26.199973303190628, 41.121560970494215], [26.199975490912948, 41.12138082712219], [26.199737268791797, 41.12137917252965], [26.199735080418208, 41.12155931589125]], [[26.19807190741235, 41.12118743329691], [26.19831012874318, 41.12118909132668], [26.198312320984588, 41.12100894801624], [26.198074100305007, 41.12100728999693], [26.19807190741235, 41.12118743329691]], [[26.197835879645314, 41.1210056314851], [26.198074100305007, 41.12100728999693], [26.198080678863647, 41.120466860062464], [26.198318897589505, 41.12046851805042], [26.19832108975138, 41.12028837471697], [26.19855930784589, 41.12029003220197], [26.19856149933666, 41.12010988885235], [26.19808506446996, 41.120106573410744], [26.198082871676746, 41.12028671673948], [26.197844653622006, 41.12028505826947], [26.197835879645314, 41.1210056314851]]]}}, {"type": "Feature", "properties": {"pixel_count": 30, "area_ha": 1.2}, "geometry": {"type": "Polygon", "coordinates": [[[26.19404198279179, 41.1195378831318], [26.194044186575802, 41.11935773995824], [26.19428240105548, 41.11935940625582], [26.194286807261165, 41.118999119870445], [26.19452502045845, 41.119000785654514], [26.19452722288014, 41.118820642442714], [26.193336160349475, 41.11881230865002], [26.193338366007044, 41.11863216548501], [26.19310015421208, 41.11863049725955], [26.19310456676953, 41.1182702109333], [26.193342777262178, 41.118271879137716], [26.193338366007044, 41.11863216548501], [26.19357657782202, 41.11863383321799], [26.193578782808423, 41.11845369003671], [26.194293416419825, 41.11845869024926], [26.194295619432747, 41.118278547030705], [26.194533830025357, 41.11828021277279], [26.194531627663594, 41.11846035600184], [26.194293416419825, 41.11845869024926], [26.19429121338692, 41.11863883346207], [26.19500584913165, 41.11864382927387], [26.195008050211054, 41.11846368602957], [26.19476983892734, 41.11846202126194], [26.194772040637943, 41.11828187802238], [26.195010251270496, 41.118283542779515], [26.195012452309975, 41.11810339952371], [26.19548887233266, 41.11810672753959], [26.195486672595493, 41.11828687081636], [26.19572488328792, 41.11828853409607], [26.195720485056057, 41.118648820653355], [26.1952440610865, 41.11864549355952], [26.195241860638298, 41.118825636808566], [26.19500364803228, 41.11882397251242], [26.19499924577365, 41.11918425897229], [26.194761031885232, 41.11918259416268], [26.194758830074775, 41.119362737373486], [26.19452061555514, 41.1193610720609], [26.19451841307352, 41.11954121525546], [26.19404198279179, 41.1195378831318]], [[26.195008050211054, 41.11846368602957], [26.195484472838373, 41.1184670140874], [26.195486672595493, 41.11828687081636], [26.195010251270496, 41.118283542779515], [26.195008050211054, 41.11846368602957]]]}}, {"type": "Feature", "properties": {"pixel_count": 90, "area_ha": 3.6}, "geometry": {"type": "Polygon", "coordinates": [[[26.200729497838974, 41.11814320570231], [26.200731683230856, 41.117963062189794], [26.200017053867136, 41.11795810196154], [26.20001924119264, 41.11777795847456], [26.19978103209555, 41.117776304090626], [26.199783220052357, 41.117596160608336], [26.199545011626252, 41.117594505742375], [26.199542823018305, 41.11777464921425], [26.19882819590571, 41.11776968163031], [26.198830386467076, 41.11758953818975], [26.19859217812041, 41.11758788135395], [26.19859875163869, 41.11704745102916], [26.198360545265288, 41.117045793732245], [26.198364928813664, 41.1166855068412], [26.198126723762368, 41.11668384907274], [26.19812891615784, 41.11650370562906], [26.197890711777532, 41.11650204737861], [26.19789729079793, 41.11596161704442], [26.198135493224967, 41.1159632752635], [26.198137685540903, 41.11578313179681], [26.19837588733674, 41.115784789513015], [26.19837807898172, 41.11560464603015], [26.198616280146357, 41.115606303243474], [26.198609707105028, 41.11614673370621], [26.198371503987143, 41.116145076461535], [26.198367120558036, 41.11650536338707], [26.19860532497811, 41.11650702065263], [26.198607516051503, 41.116326877182296], [26.19884571984035, 41.11632853394498], [26.198843529418056, 41.116508677425756], [26.199558142857075, 41.11651364479048], [26.19955595436823, 41.11669378829682], [26.20003236472904, 41.11669709743196], [26.20003673908247, 41.11633681037179], [26.200513146918222, 41.11634011749544], [26.200515332762993, 41.11615997393588], [26.20099173937585, 41.116163279068935], [26.200987370270877, 41.11652356622398], [26.20122557490923, 41.11652521807268], [26.201221207027217, 41.116885505225575], [26.201459412987596, 41.11688715660265], [26.201455046328597, 41.11724744375337], [26.201216839065975, 41.11724579235546], [26.201212471025496, 41.11760607946237], [26.200974262480415, 41.11760442755118], [26.20097207777932, 41.117784571085615], [26.20121028697554, 41.1177862230072], [26.20120810290578, 41.1179663665463], [26.201446312772962, 41.11796801798585], [26.201444129334547, 41.118148161529604], [26.20120591881621, 41.11814651007965], [26.20120810290578, 41.1179663665463], [26.200969893058407, 41.11796471461428], [26.200967708317684, 41.11814485813721], [26.200729497838974, 41.11814320570231]], [[26.20001924119264, 41.11777795847456], [26.200733868602914, 41.117782918671544], [26.20073605395515, 41.11760277514754], [26.2000214284983, 41.11759781498183], [26.20001924119264, 41.11777795847456]], [[26.198830386467076, 41.11758953818975], [26.199068594833605, 41.117591194533084], [26.199070784723972, 41.117411051076346], [26.19930899245923, 41.11741270691678], [26.199311181678606, 41.11723256344386], [26.199072974594475, 41.11723090761386], [26.199075164445116, 41.11705076414564], [26.19883695803197, 41.117049107833616], [26.198830386467076, 41.11758953818975]], [[26.200023615784126, 41.11741767148335], [26.200261823598776, 41.117419325353964], [26.200264010213633, 41.11723918183931], [26.200502217396984, 41.117240835207035], [26.200504403340883, 41.1170606916762], [26.199789783803702, 41.11705573012694], [26.199787595906432, 41.11723587362649], [26.20002580305011, 41.117237527979114], [26.200023615784126, 41.11741767148335]], [[26.2005087751692, 41.11670040459731], [26.200746980419026, 41.11670205744132], [26.200749165652343, 41.116521913882835], [26.200510961053624, 41.116520261049246], [26.2005087751692, 41.11670040459731]]]}}, {"type": "Feature", "properties": {"pixel_count": 832, "area_ha": 33.28}, "geometry": {"type": "Polygon", "coordinates": [[[26.196937894455257, 41.1164954094524], [26.196940090086336, 41.11631526605527], [26.197178293735952, 41.116316926265014], [26.19718048869603, 41.11613678285167], [26.196942285697506, 41.11613512265237], [26.19694887241153, 41.11559469240924], [26.19718707345681, 41.11559635257713], [26.19719365803843, 41.11505592225086], [26.19695545894633, 41.115054262114384], [26.19695984986997, 41.114693975222394], [26.19576886121876, 41.11468566725851], [26.195764463784652, 41.11504595404575], [26.19600266277713, 41.115047616644304], [26.196000464681216, 41.11522776003977], [26.195524065414098, 41.115224434329264], [26.195530663548322, 41.11468400418851], [26.195054268267288, 41.11468067657128], [26.195052067607072, 41.114860819936304], [26.194813869345452, 41.114859155378575], [26.194816070656707, 41.11467901202405], [26.19457787306609, 41.11467734698441], [26.194580075008417, 41.11449720363462], [26.19410368118918, 41.11449387209913], [26.19410147794478, 41.11467401542791], [26.1933868854127, 41.114669014400086], [26.193380269700178, 41.115209444257324], [26.19361846914402, 41.11521111179055], [26.19361626451757, 41.115391255075316], [26.19385446463247, 41.11539292212662], [26.193850056621717, 41.11575320869993], [26.193373653807644, 41.11574987406283], [26.193380269700178, 41.115209444257324], [26.19242747212488, 41.115202769200266], [26.1924296799866, 41.11502262596235], [26.19266787869935, 41.11502429545471], [26.192670085889997, 41.11484415220052], [26.192908283971718, 41.11484582118996], [26.192910490491307, 41.1146656779195], [26.1933868854127, 41.114669014400086], [26.193389090610204, 41.11448887110283], [26.19386548430953, 41.11449220559277], [26.193869892040436, 41.11413191893898], [26.19363169648283, 41.114130251961235], [26.193633900969317, 41.11395010863623], [26.193395706082722, 41.1139484411766], [26.193397911200226, 41.113768297856346], [26.193636105435807, 41.113769965305465], [26.193644923101843, 41.11304939192497], [26.193168539858657, 41.11304605661846], [26.193172951175633, 41.11268576993576], [26.192934760886004, 41.112684101564966], [26.19294137966433, 41.112143671529374], [26.193179568001067, 41.11214533986861], [26.193188390154933, 41.11142476636524], [26.19295020442197, 41.11142309806808], [26.192947998262575, 41.11160324144203], [26.192471625554806, 41.111599903349614], [26.19247383301607, 41.11141975999671], [26.19223564734315, 41.111418090222486], [26.19223785543532, 41.11123794687437], [26.192476040457315, 41.11123961663805], [26.192478247878537, 41.111059473273656], [26.192954616680733, 41.111062811302936], [26.192959028859466, 41.110702524514814], [26.19343539513804, 41.11070586053266], [26.1934331903605, 41.11088600395063], [26.193671374180695, 41.110887671231545], [26.19367798650061, 41.110347240928846], [26.19391616838808, 41.1103489076859], [26.193911761496597, 41.11070919458113], [26.194149944705853, 41.11071086086687], [26.19414774188105, 41.110891004316365], [26.1943859257612, 41.11089267012026], [26.194388127935092, 41.11071252666026], [26.194626311184297, 41.1107141919613], [26.194628512687313, 41.11053404848504], [26.19486669530558, 41.11053571328326], [26.194871096949914, 41.11017542629253], [26.19463291563344, 41.110173761515306], [26.194635117076555, 41.10999361802181], [26.19558783985863, 41.11000027413474], [26.19558564101907, 41.1101804176702], [26.19582382241535, 41.1101820804781], [26.195826020604017, 41.11000193693215], [26.19892237210611, 41.11002350849656], [26.198917992632087, 41.11038379585472], [26.198679810326198, 41.1103821394367], [26.198677619908494, 41.11056228309671], [26.198915802865287, 41.11056393952517], [26.198913613078627, 41.110744083189886], [26.19915179670619, 41.11074573913644], [26.199143039964635, 41.11146631377956], [26.199381226215756, 41.111467969275516], [26.199376849027736, 41.11182825658346], [26.19913866147473, 41.11182660106662], [26.199127714902485, 41.11272731918372], [26.199604096537985, 41.11273062982941], [26.19960190846593, 41.11291077345645], [26.199840099964433, 41.11291242805116], [26.199831350081745, 41.113633002543615], [26.20006954420407, 41.113634656687665], [26.200067357334813, 41.113814800306834], [26.200305552127986, 41.113816453968916], [26.200303365889912, 41.11399659759277], [26.20054156135393, 41.11399825077287], [26.200545932508227, 41.113637963498576], [26.20078412669004, 41.11363961616545], [26.200790681319816, 41.113099185179635], [26.200552489091002, 41.11309753254404], [26.20055467457895, 41.11291738888101], [26.20031648302095, 41.112915735763444], [26.20032085523934, 41.11255544844103], [26.200082665003123, 41.112553794851934], [26.20008485173355, 41.11237365119252], [26.200323041318796, 41.1123753047712], [26.20033178543835, 41.11165473003441], [26.200569972439602, 41.11165638307903], [26.20057215776898, 41.11147623937003], [26.20081034413911, 41.11147789191187], [26.200808159460667, 41.11165803563128], [26.201046346501553, 41.11165968769118], [26.201044162454245, 41.111839831415246], [26.200805974762414, 41.11183817934493], [26.20080160530646, 41.11219846675501], [26.201277983313755, 41.11220177044495], [26.201284533562244, 41.111661339258724], [26.20176090774303, 41.111664640916715], [26.201767453907678, 41.11112420961631], [26.201529268760197, 41.11112255906472], [26.201531451426423, 41.11094241529682], [26.200578713638212, 41.11093580820859], [26.200585269329064, 41.11039537699542], [26.201061634278087, 41.11039868146173], [26.201066002035976, 41.11003839391587], [26.201542364460632, 41.1100416963712], [26.20154018189338, 41.11022184016782], [26.2017783637863, 41.110223490667394], [26.201776181850157, 41.11040363446867], [26.202014364413763, 41.1104052844863], [26.202016545699006, 41.110225140674615], [26.202254727631498, 41.110226790189515], [26.202252546997155, 41.1104069340116], [26.203443460210654, 41.11041517425303], [26.20344781495058, 41.110054886499206], [26.203685996350746, 41.110056533049715], [26.203683819641558, 41.110236676939884], [26.20392200171236, 41.11023832300843], [26.203917649536567, 41.11059861079227], [26.203679466163948, 41.11059696470296], [26.203675112607378, 41.11095725244307], [26.20415148197602, 41.110960544170844], [26.204142779833443, 41.11168111966512], [26.203904592535512, 41.11167947400589], [26.203902416299588, 41.111859617854705], [26.203426040461046, 41.11185632503843], [26.203423862903477, 41.11203646886075], [26.20318567436287, 41.11203482170367], [26.20318349613459, 41.112214965509864], [26.203421685326155, 41.112216612677315], [26.203417330112263, 41.11257690029321], [26.203655520625517, 41.11257854698906], [26.203653343639925, 41.112758690798785], [26.20341515247569, 41.11275704409255], [26.20341297481937, 41.11293718788614], [26.203174783023897, 41.112935540677135], [26.203172604696835, 41.1131156844546], [26.20364898960951, 41.11311897840097], [26.203651166634593, 41.11293883460274], [26.204127550324262, 41.11294212655882], [26.20413625301933, 41.112221551225474], [26.204374442289858, 41.11222319642345], [26.204376617263335, 41.11204305256536], [26.20461480590263, 41.11204469726059], [26.204612631580115, 41.112224841129056], [26.204850820890094, 41.11222648534228], [26.20485299456164, 41.11204634146347], [26.20532937193881, 41.1120496283921], [26.20532285477083, 41.11259006007348], [26.20556104544188, 41.112591702830315], [26.205558873664128, 41.11277184672298], [26.20484429975716, 41.112766916944246], [26.204837778446787, 41.1133073484945], [26.20412319885833, 41.113302414191025], [26.204118847313467, 41.11366270180025], [26.20435704179191, 41.1136643470812], [26.20435486664089, 41.113844490887566], [26.20459306179007, 41.1138461356865], [26.204590887270346, 41.11402627949748], [26.204114495689666, 41.114022989386484], [26.204116671511432, 41.11384284559623], [26.203878476401712, 41.11384119981251], [26.20388500570164, 41.11330076843842], [26.203170426350013, 41.1132958282263], [26.203168247983438, 41.113475971992266], [26.2034064417319, 41.113477619232405], [26.203404263996575, 41.113657763003005], [26.203642458415796, 41.11365940976115], [26.20364028131173, 41.11383955353637], [26.203163891191014, 41.11383625950694], [26.203166069597103, 41.11365611575247], [26.20292787521739, 41.11365446800954], [26.202930054254736, 41.113474324259705], [26.202691860545794, 41.11347267603478], [26.20269621986319, 41.11311238853868], [26.202934412270128, 41.113114036742836], [26.202938770206472, 41.11275374920296], [26.203176961331206, 41.112755396893945], [26.203179139618754, 41.11257525310499], [26.202940949145002, 41.1125736054244], [26.202943128063772, 41.11239346164009], [26.202704938260755, 41.1123918134775], [26.202702758691018, 41.11257195725141], [26.202464568256794, 41.112570308586065], [26.202460207756047, 41.11293059609587], [26.202222016039638, 41.11292894691733], [26.202228558714033, 41.11238851567521], [26.20127579985799, 41.112381914162185], [26.201269249371865, 41.11292234527944], [26.201507441009117, 41.11292399642748], [26.201496526391168, 41.11382471489336], [26.201972916235075, 41.113828015816374], [26.201970734554127, 41.11400815951312], [26.202208930156782, 41.11400980924643], [26.202204568037583, 41.11437009664346], [26.20196637113287, 41.114368446889365], [26.20196418939256, 41.114548590568866], [26.2017259918566, 41.11454694031195], [26.201732538971257, 41.11400650928741], [26.201256147864907, 41.1140032073588], [26.201251780537483, 41.114363494672595], [26.201013583711955, 41.11436184294886], [26.201009215003232, 41.11472213021886], [26.20077101689544, 41.114720477981884], [26.200768831860312, 41.11490062159784], [26.20053063312129, 41.114898968858036], [26.200528447415294, 41.11507911245783], [26.200290248045043, 41.115077459215186], [26.200288061668157, 41.1152576027988], [26.199335261781275, 41.11525098486233], [26.199333072780302, 41.11543112839849], [26.199094872207137, 41.11542947267287], [26.199092682535245, 41.11560961619284], [26.19933088375948, 41.115611271928884], [26.1993286947188, 41.11579141545353], [26.199090492843492, 41.11578975970705], [26.199092682535245, 41.11560961619284], [26.19885448133087, 41.115607959964365], [26.19885667165383, 41.11542781645485], [26.19861847112039, 41.11542615974439], [26.19862504392326, 41.11488572921268], [26.19791044830171, 41.11488075622084], [26.197923605089493, 41.11379989519033], [26.197685410494927, 41.11379823660429], [26.19768760387429, 41.11361809308956], [26.197449409950632, 41.113616434021594], [26.197451603961106, 41.11343629051155], [26.197213410708347, 41.11343463096166], [26.19721560534992, 41.11325448745634], [26.1979301832149, 41.11325946459748], [26.19792799052632, 41.11343960813418], [26.198166183838758, 41.11344126620691], [26.198168375876342, 41.11326112265976], [26.19840656855766, 41.11326278022965], [26.198410951271214, 41.1129024930972], [26.198172759891868, 41.11290083554822], [26.19817714382787, 41.112540548413676], [26.197224383717177, 41.11253391337759], [26.19722218915522, 41.11271405690591], [26.197460379804024, 41.112715716413945], [26.197458185873142, 41.112895859946974], [26.19698180329348, 41.112892540417576], [26.196979608040724, 41.113072683923924], [26.19674141612977, 41.1130710234102], [26.196732632315655, 41.11379159733622], [26.196970826830615, 41.113793257891835], [26.196973022163007, 41.11361311440848], [26.197211216046867, 41.113614774461226], [26.19720902136548, 41.11379491795505], [26.196970826830615, 41.113793257891835], [26.196968631478306, 41.11397340136945], [26.19720682666419, 41.11397506144313], [26.197204631942995, 41.11415520492545], [26.196966436106088, 41.1141535448413], [26.19695984986997, 41.114693975222394], [26.197198047659974, 41.11469563533795], [26.197200242440886, 41.114515491872865], [26.197438439599757, 41.11451715148553], [26.19744063370973, 41.114337008004235], [26.197678830237464, 41.11433866711405], [26.19767444329969, 41.11469895409181], [26.197436245469884, 41.114697294961076], [26.197434051320105, 41.11487743843088], [26.197195852859156, 41.114875778797284], [26.19719365803843, 41.11505592225086], [26.19743185715043, 41.11505758189492], [26.197429662960857, 41.11523772535322], [26.197906062546675, 41.115241043185016], [26.197903869639322, 41.11542118665849], [26.19742746875138, 41.115417868805785], [26.19742308027272, 41.11577815569364], [26.19766128200889, 41.11577981488713], [26.1976547010949, 41.1163202452072], [26.197416497405474, 41.11631858598232], [26.19741430307659, 41.11649872940039], [26.196937894455257, 41.1164954094524]], [[26.199575650053287, 41.11507249653275], [26.200052048694616, 41.115075805480124], [26.200054235702723, 41.11489566190118], [26.20053063312129, 41.114898968858036], [26.200535004473814, 41.114538681641214], [26.200296807056706, 41.11453702842984], [26.200301179632003, 41.11417674121087], [26.20006298353679, 41.11417508752794], [26.200067357334813, 41.113814800306834], [26.19982916256147, 41.11381314615235], [26.19982041228198, 41.11453372052987], [26.199582214924376, 41.11453206584127], [26.199580026653862, 41.11471220941084], [26.199818224662504, 41.11471386410987], [26.19981603702319, 41.11489400768413], [26.199577838363496, 41.11489235297468], [26.199575650053287, 41.11507249653275]], [[26.198150839018986, 41.11470227087603], [26.19862723481781, 41.11470558569061], [26.198629425692488, 41.114525442162794], [26.199582214924376, 41.11453206584127], [26.199584403175045, 41.11435192226594], [26.19910800982145, 41.11434861143239], [26.19911676783382, 41.113628037157135], [26.19935496189661, 41.11362969277835], [26.199357150699054, 41.11344954918472], [26.19911895728727, 41.11344789357393], [26.199121146720856, 41.113267749985], [26.19888295397993, 41.11326609389227], [26.19888076389534, 41.11344623747077], [26.198404377171077, 41.11344292378725], [26.198402185764618, 41.113623067339105], [26.198640379767816, 41.1136247244375], [26.19863818899249, 41.11380486799405], [26.198876383666573, 41.1138065246105], [26.198874193522393, 41.11398666817176], [26.198635998197293, 41.11398501154486], [26.19863380738223, 41.11416515508992], [26.198157415489607, 41.114161840338035], [26.198150839018986, 41.11470227087603]], [[26.19505646890754, 41.11450053320051], [26.19529466588704, 41.11450219724484], [26.195296865856307, 41.11432205385782], [26.195058669527835, 41.11432038982398], [26.19505646890754, 41.11450053320051]], [[26.19410588441359, 41.11431372876459], [26.194344080662194, 41.11431539476804], [26.194346283215605, 41.114135251417274], [26.194108087618027, 41.11413358542433], [26.19410588441359, 41.11431372876459]], [[26.195296865856307, 41.11432205385782], [26.19553506220473, 41.11432371739925], [26.195537261503016, 41.114143573996024], [26.195299065805614, 41.114141910465065], [26.195296865856307, 41.11432205385782]], [[26.199348395370173, 41.11417012352474], [26.19958659140587, 41.11417177868488], [26.199588779616843, 41.11399163509805], [26.19935058423217, 41.11398997994836], [26.199348395370173, 41.11417012352474]], [[26.193633900969317, 41.11395010863623], [26.194110290802477, 41.113953442078305], [26.194112493966948, 41.11377329872653], [26.193636105435807, 41.113769965305465], [26.193633900969317, 41.11395010863623]], [[26.194588882578014, 41.11377663017801], [26.19482707691351, 41.11377829516516], [26.194829278104972, 41.113598151776145], [26.194591084420487, 41.113596486799494], [26.194588882578014, 41.11377663017801]], [[26.19435509322948, 41.113414677956676], [26.194593286242995, 41.113416343415224], [26.194595488045525, 41.11323620002519], [26.194357295683005, 41.11323453457715], [26.19435509322948, 41.113414677956676]], [[26.200790681319816, 41.113099185179635], [26.201028873568443, 41.11310083732286], [26.201033241920577, 41.11274054994942], [26.20079505097392, 41.11273889782703], [26.200790681319816, 41.113099185179635]], [[26.19341114148527, 41.11268743781418], [26.194125712534145, 41.11269243849518], [26.194130118563365, 41.1123321517054], [26.193415551420298, 41.11232715108745], [26.193417756357814, 41.11214700771547], [26.193179568001067, 41.11214533986861], [26.193175156804116, 41.112505626585786], [26.193413346462783, 41.112507294453685], [26.19341114148527, 41.11268743781418]], [[26.195078474212348, 41.11269909917661], [26.19531666468181, 41.11270076311604], [26.19531886445155, 41.11252061967153], [26.195080674633065, 41.1125189557426], [26.195078474212348, 41.11269909917661]], [[26.194844685886256, 41.11233714789204], [26.195082875033822, 41.11233881230285], [26.195085075414624, 41.112158668857354], [26.194846886918018, 41.112157004457046], [26.194844685886256, 41.11233714789204]], [[26.19603563182358, 41.11234546502239], [26.196512010338086, 41.11234878842796], [26.196516403268237, 41.111988501405406], [26.19627821530294, 41.11198683996976], [26.19627601819687, 41.11216698347345], [26.19603782960054, 41.11216532153495], [26.19603563182358, 41.11234546502239]], [[26.203187852571396, 41.11185467789174], [26.203426040461046, 41.11185632503843], [26.20342821799887, 41.11167618121037], [26.20319003076017, 41.111674534074076], [26.203187852571396, 41.11185467789174]], [[26.193900743918167, 41.11160991171862], [26.1943771168659, 41.11161324390279], [26.194383723567334, 41.1110728135745], [26.19390735452518, 41.11106948145336], [26.193905151009492, 41.11124962488087], [26.193666965867465, 41.11124795807127], [26.193664761680868, 41.1114281014825], [26.193902947473823, 41.11142976830262], [26.193900743918167, 41.11160991171862]], [[26.195568049584665, 41.11162156574696], [26.19580623618827, 41.11162322863871], [26.19580843453644, 41.11144308513876], [26.195570248583767, 41.11144142225747], [26.195568049584665, 41.11162156574696]], [[26.20247546916262, 41.11166958971101], [26.202713656342038, 41.11167123832439], [26.202715835812942, 41.11149109452174], [26.202477649284464, 41.11148944591876], [26.20247546916262, 41.11166958971101]], [[26.196761178546446, 41.11144973174035], [26.19723755067096, 41.11145305208702], [26.197248522585124, 41.11055233418682], [26.197724888280035, 41.11055565245947], [26.197729274302787, 41.110195365217315], [26.197491092747182, 41.11019370634807], [26.197488899094854, 41.11037384996157], [26.197012534741543, 41.11037053072516], [26.197010339767512, 41.11055067431199], [26.19677215696981, 41.110549013944805], [26.196769961324968, 41.11072915751543], [26.196531777896272, 41.11072749664544], [26.1965295815806, 41.11090764019982], [26.196767765660205, 41.11090930108028], [26.196761178546446, 41.11144973174035]], [[26.194619706555457, 41.11125462235556], [26.194857891777392, 41.11125628719576], [26.19486009268938, 41.111076143726265], [26.194621908118375, 41.111074478896555], [26.194619706555457, 41.11125462235556]], [[26.20200345769079, 41.111306003458516], [26.202956201161385, 41.11131259881358], [26.2029605587025, 41.110952311158776], [26.20272237410705, 41.11095066307933], [26.20272455349889, 41.110770519253705], [26.202248185669134, 41.11076722163853], [26.20224600497546, 41.110947365443366], [26.20200782043933, 41.11094571588687], [26.20200345769079, 41.111306003458516]], [[26.19486009268938, 41.111076143726265], [26.19533646189127, 41.11107947190862], [26.19533866148146, 41.11089932841239], [26.195576845461414, 41.11090099175456], [26.195581243280127, 41.110540704723874], [26.19510487794381, 41.11053737758915], [26.19510267774261, 41.11071752108639], [26.194864494453476, 41.11071585677002], [26.19486009268938, 41.111076143726265]], [[26.201535816699494, 41.11058212774382], [26.201773999894222, 41.1105837782642], [26.201776181850157, 41.11040363446867], [26.201537999306336, 41.11040198395869], [26.201535816699494, 41.11058212774382]]]}}, {"type": "Feature", "properties": {"pixel_count": 34, "area_ha": 1.36}, "geometry": {"type": "Polygon", "coordinates": [[[26.206533330002127, 41.110976973268855], [26.20653766793665, 41.11061668528009], [26.206299484347262, 41.11061504460654], [26.206297314738915, 41.11079518859346], [26.20582094631734, 41.11079190574866], [26.205825288118003, 41.11043161781047], [26.20558710523857, 41.11042997567025], [26.20558927676028, 41.110249831702895], [26.205351094551446, 41.1102481890807], [26.205353266704353, 41.11006804511794], [26.207258719718943, 41.11008117222736], [26.207256552773227, 41.110261316272876], [26.20797109993083, 41.11026623084637], [26.207973264923847, 41.11008608676989], [26.208449628491973, 41.110089360669896], [26.208447464800756, 41.110269504767025], [26.208685647265156, 41.11027114098884], [26.208683484205224, 41.110451285090555], [26.208445301089917, 41.110449648858406], [26.208443137359453, 41.11062979294406], [26.208204953612857, 41.11062815620927], [26.20820711799423, 41.11044801213394], [26.20773075186176, 41.11044473720797], [26.20772858617856, 41.110624881262645], [26.206775851545714, 41.11061832546128], [26.20677151491303, 41.11097861347074], [26.206533330002127, 41.110976973268855]], [[26.20653766793665, 41.11061668528009], [26.206775851545714, 41.11061832546128], [26.206778019832562, 41.11043818144794], [26.20653983687441, 41.11043654127709], [26.20653766793665, 41.11061668528009]], [[26.206778019832562, 41.11043818144794], [26.207016202810376, 41.11043982112646], [26.207018370426653, 41.110259677097034], [26.206780188099742, 41.11025803742885], [26.206778019832562, 41.11043818144794]]]}}, {"type": "Feature", "properties": {"pixel_count": 552, "area_ha": 22.08}, "geometry": {"type": "Polygon", "coordinates": [[[26.21143820817256, 41.119117797530116], [26.211440364360083, 41.118937653580616], [26.211678578329366, 41.118939283895315], [26.211680733846148, 41.118759139929786], [26.211442520528053, 41.11875750962535], [26.211444676676468, 41.11857736566435], [26.21120646402911, 41.11857573487772], [26.211208620809142, 41.11839559092125], [26.210970408832523, 41.11839395965241], [26.210972566244163, 41.11821381570049], [26.21073435493828, 41.11821218394947], [26.210736512981512, 41.118032040002085], [26.210974723636234, 41.11803367174282], [26.210979038361675, 41.11767338381025], [26.21074082900926, 41.11767175209008], [26.210738671005174, 41.11785189604895], [26.21050046102118, 41.11785026382603], [26.21050261967642, 41.11767011987745], [26.21026441036316, 41.11766848717236], [26.21026872891718, 41.11730819927853], [26.20931589706917, 41.1173016636159], [26.20930508751423, 41.118202383101334], [26.209781509910542, 41.1182056520206], [26.20977934924306, 41.11838579592106], [26.21001756112178, 41.118387429652294], [26.21001540108588, 41.1185675735573], [26.210253613635366, 41.11856920680635], [26.21024929480715, 41.11892949461972], [26.210011080955297, 41.11892786135008], [26.210013241030385, 41.118747717456564], [26.20977502784931, 41.118746083704735], [26.209777188555986, 41.11856593981576], [26.20953897604569, 41.11856430558176], [26.209536814687834, 41.118744449460415], [26.209060388423698, 41.11874117949435], [26.20905822574387, 41.11892132334665], [26.20882001199004, 41.11891968761457], [26.20882217532105, 41.11873954377258], [26.208583962238023, 41.11873790755833], [26.20858612620059, 41.11855776372091], [26.20906255108391, 41.1185610356363], [26.20906687634549, 41.11820074790297], [26.208828665196357, 41.11819911221214], [26.208832991681792, 41.11783882447645], [26.2085947818546, 41.11783718831377], [26.20859045406685, 41.11819747602884], [26.208352242956966, 41.11819583935306], [26.208350078382487, 41.11837598319164], [26.20811186664107, 41.11837434601307], [26.208114031866717, 41.11819420218481], [26.207161187702166, 41.11818764858707], [26.2071655233038, 41.11782736099592], [26.2078801524908, 41.117832276870956], [26.207882318308684, 41.11765213303577], [26.207405900133324, 41.11764885629887], [26.207408067233843, 41.117468712478605], [26.207169858826788, 41.11746707338178], [26.20717419427113, 41.117106785744674], [26.206697780120535, 41.11710350611502], [26.20669561110594, 41.11728364991578], [26.20693381882253, 41.117285289987166], [26.206931650439394, 41.11746543379252], [26.206693442071664, 41.117463793710776], [26.206691273017718, 41.117643937500034], [26.20573843713903, 41.11763737220709], [26.205742780436353, 41.11727708470561], [26.20502815764096, 41.117272155627184], [26.20503033121346, 41.1170920118989], [26.204792124305545, 41.1170903678982], [26.204789950081913, 41.11727051161613], [26.204313535022994, 41.11726722211663], [26.204320061541456, 41.11672679100785], [26.204081855994954, 41.11672514555054], [26.204084032112753, 41.11654500184651], [26.203845827237096, 41.116543355907126], [26.203848003986266, 41.11636321220771], [26.204086208210818, 41.11636485813671], [26.204084032112753, 41.11654500184651], [26.205036851812686, 41.11655158067957], [26.20503902530633, 41.11637143692829], [26.20527722962951, 41.116373080395086], [26.205279402452344, 41.11619293662771], [26.20504119878027, 41.11619129317128], [26.205045545668998, 41.11583100564001], [26.205283748038894, 41.11583264907571], [26.205281575255473, 41.1160127928546], [26.205519778296164, 41.116014435808225], [26.20551760614413, 41.116194579591706], [26.205994013586796, 41.11619786404236], [26.205989671828032, 41.11655815163351], [26.20622787688111, 41.11655979314089], [26.20622353634581, 41.116920080729734], [26.2064617427208, 41.11692172176536], [26.20645957307475, 41.117101865561516], [26.206697780120535, 41.11710350611502], [26.20670211809072, 41.11674321849628], [26.20717852963683, 41.116746498084574], [26.207185032537925, 41.11620606655136], [26.207423236387157, 41.11620770557583], [26.20742540333044, 41.1160275617096], [26.20694899695383, 41.11602428318888], [26.20695116517964, 41.11584413933756], [26.207189367707024, 41.11584577883381], [26.207191535262083, 41.11566563496642], [26.20671513152914, 41.11566235550216], [26.206712962671915, 41.115842499348865], [26.20647476018387, 41.11584085886776], [26.206476929692176, 41.115660715031396], [26.20671513152914, 41.11566235550216], [26.206719469184577, 41.11530206779148], [26.20695766973907, 41.11530370774915], [26.206959837886217, 41.115123563874846], [26.20719803780931, 41.11512520332976], [26.207206707597052, 41.11440462773377], [26.206968510278163, 41.11440298832022], [26.206975014365653, 41.113862556593915], [26.207213209731453, 41.113864195976454], [26.207215377070273, 41.11368405204587], [26.207691766558806, 41.1136873293131], [26.207687434465594, 41.11404761720988], [26.20792563054138, 41.11404925512554], [26.20792779594678, 41.113869111169706], [26.208404186855205, 41.113872385503214], [26.208408515003033, 41.113512097533004], [26.208170320841035, 41.11351046063311], [26.208172485536515, 41.11333031664969], [26.207934292045156, 41.11332867926771], [26.207936457372004, 41.1131485352889], [26.20841284307235, 41.11315180953982], [26.20841717106316, 41.11279152152366], [26.208178979505153, 41.112789884665034], [26.208181144122104, 41.11260974065864], [26.20794295323471, 41.11260810331795], [26.20794944892068, 41.11206767129531], [26.208187637855158, 41.11206930860504], [26.208191966912366, 41.111709020540566], [26.207953779279805, 41.11170738325149], [26.20795594442991, 41.11152723922096], [26.20771775746793, 41.11152560144985], [26.207719923249343, 41.111345457423894], [26.20748173695795, 41.111343819170756], [26.20748390337065, 41.11116367514939], [26.20724571774984, 41.11116203641423], [26.207247884793826, 41.11098189239745], [26.207486069763704, 41.11098353112229], [26.207488236137113, 41.110803387089426], [26.20820278921185, 41.110808300278855], [26.20819846035095, 41.111168588400766], [26.20843664605032, 41.11117022516652], [26.208440973609367, 41.110809937023966], [26.208679158026506, 41.110811573276735], [26.20867699490772, 41.1109917173612], [26.2089151799954, 41.11099335313193], [26.208913017507925, 41.11117349722096], [26.209151203266153, 41.11117513250965], [26.20914904141, 41.11135527660325], [26.20962541428714, 41.111358545724194], [26.209627574841416, 41.11117840160997], [26.209865760658445, 41.111180035421604], [26.209863600755106, 41.111360179546125], [26.210339973749797, 41.11136344571291], [26.21034213235126, 41.1111833015678], [26.21010394649506, 41.11118166874088], [26.210108264941116, 41.11082138045402], [26.209870080406354, 41.11081974715534], [26.20987224025093, 41.110639603013595], [26.210348608038192, 41.110642869098015], [26.21035292506493, 41.11028258075609], [26.21011474246333, 41.11028094798065], [26.210116901598234, 41.110100803811356], [26.209402355863652, 41.11009590256188], [26.209404516931663, 41.10991575841777], [26.211548148805896, 41.10993044878051], [26.211543838366463, 41.110290737248256], [26.212020203823947, 41.11029399639874], [26.21200727984761, 41.11137486178741], [26.21224546651121, 41.11137649068576], [26.21224977327959, 41.11101620222531], [26.21248795866084, 41.11101783061077], [26.21248150043179, 41.11155826332363], [26.212719687785388, 41.11155989124753], [26.212713231333485, 41.11210032393948], [26.211998663472666, 41.11209543859829], [26.211996509330085, 41.11227558278665], [26.212472889186376, 41.11227884019369], [26.21247073632621, 41.11245898439684], [26.21151797408788, 41.11245246757219], [26.211515818604266, 41.112632611728515], [26.21175400978552, 41.11263424168351], [26.21175185493334, 41.11281438584437], [26.211990046785125, 41.112816015317264], [26.211992200986316, 41.11263587114613], [26.21246858344652, 41.112639128594246], [26.212462124690283, 41.11317956115201], [26.21222393149744, 41.11317793264333], [26.21222608508671, 41.11299778847343], [26.21174970006162, 41.11299452999946], [26.21174754517035, 41.113174674148844], [26.211985738324127, 41.11317630364228], [26.21198358406432, 41.113356447796164], [26.212459971732486, 41.11335970532643], [26.21245351274193, 41.11390013781526], [26.212215316945034, 41.11389850926552], [26.2122196242603, 41.113538220965914], [26.211981429784977, 41.113536591944325], [26.211974966829708, 41.114077024354295], [26.211736770420856, 41.11407539480949], [26.21173246038424, 41.114435683033534], [26.21125606502103, 41.11443242242558], [26.211253908671313, 41.11461256650844], [26.211015710368, 41.11461093545556], [26.211017867368756, 41.114430791382986], [26.210541472122912, 41.11442752782058], [26.210537155497637, 41.114787815918824], [26.21029895660198, 41.11478618337841], [26.210296797608923, 41.11496632740862], [26.209343999617946, 41.11495979228163], [26.20933967636457, 41.1153200802424], [26.208625074170794, 41.11531517366488], [26.20862291056148, 41.11549531760572], [26.20838470921839, 41.11549368108472], [26.208380380638733, 41.11585396892851], [26.208618583283986, 41.11585560547016], [26.208620746932546, 41.11567546154082], [26.209573555105408, 41.1156820027418], [26.209569232997364, 41.116042290677235], [26.209331029622557, 41.11604065609501], [26.20932670613391, 41.11640094398685], [26.209564910810915, 41.11640257858967], [26.20956707191394, 41.11622243463633], [26.209805275959443, 41.1162240687364], [26.20980743639177, 41.116043924767006], [26.21004563980577, 41.11604555836433], [26.21005211903193, 41.11550512639078], [26.209575716130033, 41.11550185876546], [26.209580038120475, 41.11514157079557], [26.209818238259487, 41.11514320483383], [26.20981607792513, 41.11532334883194], [26.210054278734802, 41.11532498238809], [26.21005211903193, 41.11550512639078], [26.21029032051226, 41.11550675946478], [26.21028384323936, 41.11604719146923], [26.210522046692535, 41.11604882408169], [26.2105198882135, 41.11622896808198], [26.209805275959443, 41.1162240687364], [26.209803115507523, 41.11640421270005], [26.209564910810915, 41.11640257858967], [26.209560588546065, 41.116762866479135], [26.209798794544895, 41.1167645006101], [26.209796634034188, 41.11694464455653], [26.21003484070373, 41.11694627820537], [26.210032680824554, 41.11712642215634], [26.210747302904085, 41.11713132017899], [26.210742986993775, 41.11749160812546], [26.211219404415875, 41.11749487105276], [26.21122371772164, 41.117134583065145], [26.21193834009467, 41.11713947370093], [26.211931875966936, 41.11767990576624], [26.21169366653629, 41.11767827601594], [26.211695821916223, 41.11749813201019], [26.211219404415875, 41.11749487105276], [26.211215091031868, 41.11785515901739], [26.21145330107456, 41.11785678976289], [26.21145114500437, 41.11803693374687], [26.211689355717773, 41.1180385640102], [26.211680733846148, 41.118759139929786], [26.211918947183793, 41.11876076974174], [26.211916792318195, 41.118940913717545], [26.211678578329366, 41.118939283895315], [26.21167642279303, 41.11911942785511], [26.21143820817256, 41.119117797530116]], [[26.21121077756961, 41.11821544695905], [26.211448988914626, 41.11821707772512], [26.21145114500437, 41.11803693374687], [26.21121293431052, 41.11803530299109], [26.21121077756961, 41.11821544695905]], [[26.205978817086542, 41.1174588705108], [26.206217025395233, 41.11746051206992], [26.206219195731776, 41.1172803682956], [26.20598098807422, 41.11727872674683], [26.205978817086542, 41.1174588705108]], [[26.208599109563842, 41.11747690057573], [26.208837318088744, 41.117478536717776], [26.20884813376278, 41.11657781722056], [26.208609928493505, 41.1165761811301], [26.208614255927994, 41.116215893311626], [26.20885245989506, 41.11621752938146], [26.20885462293177, 41.11603738545329], [26.208378216319456, 41.1160341128418], [26.208376051980554, 41.116214256749345], [26.208137848052747, 41.11621261969463], [26.208135683043107, 41.11639276358609], [26.20837388762202, 41.11639440065114], [26.208369558846062, 41.11675468843748], [26.207654941261584, 41.11674977570309], [26.2076527748908, 41.116929919556675], [26.20741456841748, 41.116928280983316], [26.207412401375922, 41.11710842482083], [26.208127022808203, 41.11711333909453], [26.208129187896382, 41.11693319522604], [26.208367394428635, 41.11693483232203], [26.208365229991575, 41.117114976200845], [26.208603437194583, 41.11711661281472], [26.208599109563842, 41.11747690057573]], [[26.20907985165947, 41.11711988456508], [26.209318058921337, 41.11712151970159], [26.20932022075389, 41.11694137578152], [26.209082014143153, 41.116939740655326], [26.20907985165947, 41.11711988456508]], [[26.204794298509455, 41.11691022417454], [26.205270711042758, 41.11691351166274], [26.205275056786967, 41.11655322415672], [26.205036851812686, 41.11655158067957], [26.205034678299324, 41.11673172442508], [26.204796472693644, 41.116730080445116], [26.204794298509455, 41.11691022417454]], [[26.205511089569818, 41.11673501090767], [26.205749295234614, 41.116736653410285], [26.205751466794645, 41.116556509633696], [26.205513261780954, 41.11655486714143], [26.205511089569818, 41.11673501090767]], [[26.205275056786967, 41.11655322415672], [26.205513261780954, 41.11655486714143], [26.20551543397239, 41.11637472336944], [26.20527722962951, 41.116373080395086], [26.205275056786967, 41.11655322415672]], [[26.20884813376278, 41.11657781722056], [26.209086339051673, 41.11657945281858], [26.20908850147651, 41.116399308891594], [26.20885029683873, 41.11639767330387], [26.20884813376278, 41.11657781722056]], [[26.20742106942422, 41.116387849436315], [26.207659273944202, 41.116389487978694], [26.20766144025604, 41.11620934410787], [26.207423236387157, 41.11620770557583], [26.20742106942422, 41.116387849436315]], [[26.207429737158048, 41.115667273959886], [26.207667939073666, 41.11566891246094], [26.20767010530691, 41.11548876856713], [26.208146507894924, 41.11549204407128], [26.208150837698202, 41.11513175622514], [26.207436237752056, 41.115126842292234], [26.20743407090704, 41.11530698618719], [26.207195870313225, 41.115305347214374], [26.207193702797486, 41.11548549109327], [26.20743190404237, 41.115487130076424], [26.207429737158048, 41.115667273959886]], [[26.208150837698202, 41.11513175622514], [26.208389037719527, 41.11513339321793], [26.208391201940653, 41.11495324927593], [26.208153002570388, 41.11495161229346], [26.208150837698202, 41.11513175622514]], [[26.208867600740064, 41.11495652176361], [26.2091058001692, 41.11495815726883], [26.209107962417534, 41.114778013290135], [26.209346161215226, 41.114779648292625], [26.209350484350963, 41.11441936029736], [26.20887408937938, 41.114416089841214], [26.208876252219913, 41.11423594585558], [26.20863805541458, 41.11423430989922], [26.208640218886533, 41.114054165918155], [26.208163826636795, 41.114050892548825], [26.208161661862782, 41.11423103650925], [26.20792346511633, 41.11422939907565], [26.20792129967165, 41.11440954301999], [26.208635891923006, 41.114414453874524], [26.20863372841181, 41.11459459784408], [26.208871926519222, 41.114596233821096], [26.208867600740064, 41.11495652176361]], [[26.207440571383135, 41.11476655448507], [26.207678770043426, 41.11476819293447], [26.207680936178438, 41.11458804901193], [26.207442738169192, 41.11458641057287], [26.207440571383135, 41.11476655448507]], [[26.20791696872336, 41.114769830891454], [26.20839336614215, 41.11477310532816], [26.20839553032402, 41.11459296137467], [26.207919134207327, 41.114589686958595], [26.20791696872336, 41.114769830891454]], [[26.211017867368756, 41.114430791382986], [26.21125606502103, 41.11443242242558], [26.21126037766179, 41.11407213424266], [26.210545788669886, 41.11406723969937], [26.210543630406185, 41.114247383762844], [26.211020024349956, 41.11425064730469], [26.211017867368756, 41.114430791382986]], [[26.207447071682356, 41.11422612273123], [26.207685268389522, 41.11422776114963], [26.207687434465594, 41.11404761720988], [26.207449238409463, 41.11404597880179], [26.207447071682356, 41.11422612273123]], [[26.208876252219913, 41.11423594585558], [26.209114449044865, 41.114237581319564], [26.209116611214757, 41.114057437317875], [26.208878415040836, 41.114055801864225], [26.208876252219913, 41.11423594585558]], [[26.209352645889428, 41.114239216291125], [26.210067236540716, 41.114244118251385], [26.21006939610648, 41.114063974208484], [26.209831199854154, 41.114062340724445], [26.20983336005136, 41.1138821966861], [26.20959516446965, 41.113880562719956], [26.209597325298283, 41.11370041868617], [26.209120935495708, 41.11369714929729], [26.209123097606767, 41.11351700527837], [26.208884903385904, 41.113515369855634], [26.208893554238045, 41.112794793763776], [26.208655362640794, 41.11279315788991], [26.20864454577157, 41.113693877938815], [26.20888274062383, 41.11369551386425], [26.20888057784214, 41.113875657867105], [26.209118773365038, 41.11387729331045], [26.209116611214757, 41.114057437317875], [26.20935480740829, 41.11405907227913], [26.209352645889428, 41.114239216291125]], [[26.20721104237298, 41.11404433990132], [26.207449238409463, 41.11404597880179], [26.207451405116913, 41.11386583486661], [26.207213209731453, 41.113864195976454], [26.20721104237298, 41.11404433990132]], [[26.20983552022897, 41.11370205264202], [26.21007371517925, 41.11370368610547], [26.210075874686254, 41.113523542045336], [26.210552263343537, 41.11352680747444], [26.210554421528936, 41.113346663387986], [26.210792615235935, 41.113348295353674], [26.210794772750756, 41.11316815125117], [26.21103296582632, 41.11316978271418], [26.21103512267058, 41.11298963859565], [26.211511507578386, 41.11299290002392], [26.211515818604266, 41.112632611728515], [26.21127762744256, 41.11263098128112], [26.211281939692196, 41.11227069298331], [26.211520129551943, 41.112272323410124], [26.21152228499646, 41.11209217924231], [26.211045906598454, 41.11208891791686], [26.211043749852, 41.112269062064115], [26.210805560031368, 41.11226743065253], [26.210814189503647, 41.11154685407021], [26.210576002306414, 41.11154522220741], [26.210573844316745, 41.11172536635133], [26.209859280889656, 41.11172046777792], [26.209863600755106, 41.111360179546125], [26.20962541428714, 41.111358545724194], [26.209621093119797, 41.111718833935385], [26.209382905369537, 41.11171719960049], [26.20938074410552, 41.11189734368717], [26.209618932506732, 41.11189897803236], [26.209616771874074, 41.112079122123596], [26.209854960945847, 41.11208075598673], [26.209852800944557, 41.112260900082525], [26.209614611221816, 41.11225926620909], [26.209612450549965, 41.11243941028883], [26.210088831316984, 41.11244267756392], [26.21009099068689, 41.112262533463586], [26.210329180448806, 41.11226416635228], [26.21032702172987, 41.112444310462905], [26.210088831316984, 41.11244267756392], [26.210086671927492, 41.11262282165852], [26.209610289858517, 41.11261955436282], [26.209612450549965, 41.11243941028883], [26.209374260195847, 41.11243777591271], [26.209372098853418, 41.11261791997641], [26.209133907867926, 41.112616285097616], [26.20912742177006, 41.11315671722331], [26.209365614708524, 41.11315835213303], [26.209363453287683, 41.11333849617373], [26.209839840525415, 41.11334176453661], [26.20983552022897, 41.11370205264202]], [[26.209123097606767, 41.11351700527837], [26.20936129184724, 41.113518640208696], [26.209363453287683, 41.11333849617373], [26.20912525969822, 41.113336861253714], [26.209123097606767, 41.11351700527837]], [[26.211269002708622, 41.113351557807846], [26.211507196474308, 41.11335318829636], [26.211509352036124, 41.113173044163005], [26.211271158921445, 41.113171413684796], [26.211269002708622, 41.113351557807846]], [[26.20841717106316, 41.11279152152366], [26.208655362640794, 41.11279315788991], [26.208659689251135, 41.11243286983013], [26.208421498975465, 41.11243123348451], [26.20841717106316, 41.11279152152366]], [[26.208659689251135, 41.11243286983013], [26.208897879546427, 41.11243450568337], [26.208904367361892, 41.11189407351967], [26.208666179019502, 41.111892437697364], [26.208668342236383, 41.111712293641624], [26.208430154564564, 41.11171065733728], [26.208425826809265, 41.11207094542238], [26.208664015782997, 41.11207258174736], [26.208659689251135, 41.11243286983013]], [[26.212241159664703, 41.11173677912324], [26.212479347649726, 41.11173840754976], [26.21248150043179, 41.11155826332363], [26.21224331309772, 41.111556634907366], [26.212241159664703, 41.11173677912324]], [[26.20795594442991, 41.11152723922096], [26.208194131411524, 41.111528876499705], [26.208196295891053, 41.11134873245311], [26.20795810956038, 41.11134709518468], [26.20795594442991, 41.11152723922096]], [[26.211528751212718, 41.11155174670441], [26.21176693848818, 41.11155337659776], [26.211769093203554, 41.11137323239669], [26.21153090657904, 41.11137160251362], [26.211528751212718, 41.11155174670441]], [[26.207719923249343, 41.111345457423894], [26.20795810956038, 41.11134709518468], [26.207962439762408, 41.1109868070949], [26.207486069763704, 41.11098353112229], [26.20748390337065, 41.11116367514939], [26.20772208901111, 41.1111653133922], [26.207719923249343, 41.111345457423894]], [[26.210582476158, 41.11100478974122], [26.210820661402416, 41.111006421573144], [26.210822818662873, 41.11082627739598], [26.21058463406938, 41.11082464557435], [26.210582476158, 41.11100478974122]]]}}]}