{"type": "FeatureCollection", "features": [{"type": "Feature", "properties": {"bright_ti4": "343.13", "scan": "0.64", "track": "0.54", "acq_date": "2023-08-21", "acq_time": "1026", "satellite": "N", "instrument": "VIIRS", "confidence": "n", "version": "2", "bright_ti5": "306.02", "frp": "155.6", "daynight": "D", "type": "0"}, "geometry": {"type": "Point", "coordinates": [26.18588, 41.11685]}}, {"type": "Feature", "properties": {"bright_ti4": "337.61", "scan": "0.43", "track": "0.38", "acq_date": "2023-08-22", "acq_time": "0025", "satellite": "N", "instrument": "VIIRS", "confidence": "n", "version": "2", "bright_ti5": "299.02", "frp": "2.76", "daynight": "N", "type": "0"}, "geometry": {"type": "Point", "coordinates": [26.18716, 41.11818]}}, {"type": "Feature", "properties": {"bright_ti4": "348.34", "scan": "0.43", "track": "0.38", "acq_date": "2023-08-22", "acq_time": "0025", "satellite": "N", "instrument": "VIIRS", "confidence": "n", "version": "2", "bright_ti5": "306.03", "frp": "19.51", "daynight": "N", "type": "0"}, "geometry": {"type": "Point", "coordinates": [26.18887, 41.10688]}}, {"type": "Feature", "properties": {"bright_ti4": "367", "scan": "0.54", "track": "0.68", "acq_date": "2023-08-22", "acq_time": "1008", "satellite": "N", "instrument": "VIIRS", "confidence": "h", "version": "2", "bright_ti5": "324.58", "frp": "157.54", "daynight": "D", "type": "0"}, "geometry": {"type": "Point", "coordinates": [26.19964, 41.11038]}}, {"type": "Feature", "properties": {"bright_ti4": "332.99", "scan": "0.54", "track": "0.68", "acq_date": "2023-08-22", "acq_time": "1008", "satellite": "N", "instrument": "VIIRS", "confidence": "n", "version": "2", "bright_ti5": "299.56", "frp": "157.54", "daynight": "D", "type": "0"}, "geometry": {"type": "Point", "coordinates": [26.19667, 41.11631]}}, {"type": "Feature", "properties": {"bright_ti4": "346.24", "scan": "0.54", "track": "0.51", "acq_date": "2023-08-22", "acq_time": "1148", "satellite": "N", "instrument": "VIIRS", "confidence": "n", "version": "2", "bright_ti5": "306.66", "frp": "6.78", "daynight": "D", "type": "0"}, "geometry": {"type": "Point", "coordinates": [26.19526, 41.11474]}}, {"type": "Feature", "properties": {"bright_ti4": "341.64", "scan": "0.54", "track": "0.51", "acq_date": "2023-08-22", "acq_time": "1148", "satellite": "N", "instrument": "VIIRS", "confidence": "n", "version": "2", "bright_ti5": "304.11", "frp": "6.78", "daynight": "D", "type": "0"}, "geometry": {"type": "Point", "coordinates": [26.2024, 41.11522]}}, {"type": "Feature", "properties": {"bright_ti4": "345.3", "scan": "0.54", "track": "0.51", "acq_date": "2023-08-22", "acq_time": "1148", "satellite": "N", "instrument": "VIIRS", "confidence": "n", "version": "2", "bright_ti5": "307.55", "frp": "7.84", "daynight": "D", "type": "0"}, "geometry": {"type": "Point", "coordinates": [26.19659, 41.11346]}}, {"type": "Feature", "properties": {"bright_ti4": "341.99", "scan": "0.54", "track": "0.51", "acq_date": "2023-08-22", "acq_time": "1148", "satellite": "N", "instrument": "VIIRS", "confidence": "n", "version": "2", "bright_ti5": "306.29", "frp": "7.69", "daynight": "D", "type": "0"}, "geometry": {"type": "Point", "coordinates": [26.20385, 41.11399]}}, {"type": "Feature", "properties": {"bright_ti4": "346.31", "scan": "0.54", "track": "0.51", "acq_date": "2023-08-22", "acq_time": "1148", "satellite": "N", "instrument": "VIIRS", "confidence": "n", "version": "2", "bright_ti5": "310.68", "frp": "9.8", "daynight": "D", "type": "0"}, "geometry": {"type": "Point", "coordinates": [26.19773, 41.1088]}}, {"type": "Feature", "properties": {"bright_ti4": "342.56", "scan": "0.54", "track": "0.51", "acq_date": "2023-08-22", "acq_time": "1148", "satellite": "N", "instrument": "VIIRS", "confidence": "n", "version": "2", "bright_ti5": "309.51", "frp": "14.66", "daynight": "D", "type": "0"}, "geometry": {"type": "Point", "coordinates": [26.20478, 41.10931]}}, {"type": "Feature", "properties": {"bright_ti4": "324.63", "scan": "0.39", "track": "0.36", "acq_date": "2023-08-23", "acq_time": "0006", "satellite": "N", "instrument": "VIIRS", "confidence": "n", "version": "2", "bright_ti5": "296.54", "frp": "2.33", "daynight": "N", "type": "0"}, "geometry": {"type": "Point", "coordinates": [26.18733, 41.12315]}}, {"type": "Feature", "properties": {"bright_ti4": "321.79", "scan": "0.39", "track": "0.36", "acq_date": "2023-08-23", "acq_time": "0006", "satellite": "N", "instrument": "VIIRS", "confidence": "n", "version": "2", "bright_ti5": "295.93", "frp": "2.33", "daynight": "N", "type": "0"}, "geometry": {"type": "Point", "coordinates": [26.192, 41.12248]}}, {"type": "Feature", "properties": {"bright_ti4": "309.43", "scan": "0.39", "track": "0.36", "acq_date": "2023-08-23", "acq_time": "0006", "satellite": "N", "instrument": "VIIRS", "confidence": "n", "version": "2", "bright_ti5": "294.96", "frp": "1.35", "daynight": "N", "type": "0"}, "geometry": {"type": "Point", "coordinates": [26.19667, 41.12181]}}, {"type": "Feature", "properties": {"bright_ti4": "316.2", "scan": "0.39", "track": "0.36", "acq_date": "2023-08-23", "acq_time": "0006", "satellite": "N", "instrument": "VIIRS", "confidence": "n", "version": "2", "bright_ti5": "294.97", "frp": "1.42", "daynight": "N", "type": "0"}, "geometry": {"type": "Point", "coordinates": [26.20515, 41.11715]}}, {"type": "Feature", "properties": {"bright_ti4": "330.55", "scan": "0.39", "track": "0.36", "acq_date": "2023-08-23", "acq_time": "0006", "satellite": "N", "instrument": "VIIRS", "confidence": "n", "version": "2", "bright_ti5": "296.51", "frp": "4.74", "daynight": "N", "type": "0"}, "geometry": {"type": "Point", "coordinates": [26.20269, 41.11576]}}, {"type": "Feature", "properties": {"bright_ti4": "323.9", "scan": "0.39", "track": "0.36", "acq_date": "2023-08-23", "acq_time": "0006", "satellite": "N", "instrument": "VIIRS", "confidence": "n", "version": "2", "bright_ti5": "296.33", "frp": "4.85", "daynight": "N", "type": "0"}, "geometry": {"type": "Point", "coordinates": [26.20728, 41.1151]}}, {"type": "Feature", "properties": {"bright_ti4": "346.59", "scan": "0.39", "track": "0.36", "acq_date": "2023-08-23", "acq_time": "0006", "satellite": "N", "instrument": "VIIRS", "confidence": "n", "version": "2", "bright_ti5": "300.22", "frp": "4.85", "daynight": "N", "type": "0"}, "geometry": {"type": "Point", "coordinates": [26.20645, 41.11177]}}, {"type": "Feature", "properties": {"bright_ti4": "343.88", "scan": "0.39", "track": "0.36", "acq_date": "2023-08-23", "acq_time": "0006", "satellite": "N", "instrument": "VIIRS", "confidence": "n", "version": "2", "bright_ti5": "300.29", "frp": "4.88", "daynight": "N", "type": "0"}, "geometry": {"type": "Point", "coordinates": [26.20558, 41.10845]}}, {"type": "Feature", "properties": {"bright_ti4": "307.38", "scan": "0.39", "track": "0.36", "acq_date": "2023-08-23", "acq_time": "0006", "satellite": "N", "instrument": "VIIRS", "confidence": "n", "version": "2", "bright_ti5": "295.44", "frp": "1.75", "daynight": "N", "type": "0"}, "geometry": {"type": "Point", "coordinates": [26.201, 41.10911]}}, {"type": "Feature", "properties": {"bright_ti4": "342.63", "scan": "0.48", "track": "0.4", "acq_date": "2023-08-23", "acq_time": "1129", "satellite": "N", "instrument": "VIIRS", "confidence": "n", "version": "2", "bright_ti5": "305.87", "frp": "2.83", "daynight": "D", "type": "0"}, "geometry": {"type": "Point", "coordinates": [26.19424, 41.12387]}}, {"type": "Feature", "properties": {"bright_ti4": "338.34", "scan": "0.48", "track": "0.4", "acq_date": "2023-08-23", "acq_time": "1129", "satellite": "N", "instrument": "VIIRS", "confidence": "n", "version": "2", "bright_ti5": "305.42", "frp": "6.47", "daynight": "D", "type": "0"}, "geometry": {"type": "Point", "coordinates": [26.20702, 41.11772]}}, {"type": "Feature", "properties": {"bright_ti4": "347.64", "scan": "0.48", "track": "0.4", "acq_date": "2023-08-23", "acq_time": "1129", "satellite": "N", "instrument": "VIIRS", "confidence": "n", "version": "2", "bright_ti5": "307.8", "frp": "6.47", "daynight": "D", "type": "0"}, "geometry": {"type": "Point", "coordinates": [26.20772, 41.11402]}}, {"type": "Feature", "properties": {"bright_ti4": "345.19", "scan": "0.48", "track": "0.4", "acq_date": "2023-08-23", "acq_time": "1129", "satellite": "N", "instrument": "VIIRS", "confidence": "n", "version": "2", "bright_ti5": "310.42", "frp": "11", "daynight": "D", "type": "0"}, "geometry": {"type": "Point", "coordinates": [26.20852, 41.11033]}}, {"type": "Feature", "properties": {"bright_ti4": "339.99", "scan": "0.48", "track": "0.4", "acq_date": "2023-08-23", "acq_time": "1129", "satellite": "N", "instrument": "VIIRS", "confidence": "n", "version": "2", "bright_ti5": "309.55", "frp": "11", "daynight": "D", "type": "0"}, "geometry": {"type": "Point", "coordinates": [26.20949, 41.10666]}}, {"type": "Feature", "properties": {"bright_ti4": "325.6", "scan": "0.55", "track": "0.43", "acq_date": "2023-08-23", "acq_time": "2347", "satellite": "N", "instrument": "VIIRS", "confidence": "n", "version": "2", "bright_ti5": "293.53", "frp": "4.56", "daynight": "N", "type": "0"}, "geometry": {"type": "Point", "coordinates": [26.21434, 41.11309]}}, {"type": "Feature", "properties": {"bright_ti4": "319.42", "scan": "0.55", "track": "0.43", "acq_date": "2023-08-23", "acq_time": "2347", "satellite": "N", "instrument": "VIIRS", "confidence": "n", "version": "2", "bright_ti5": "293.68", "frp": "3.45", "daynight": "N", "type": "0"}, "geometry": {"type": "Point", "coordinates": [26.20849, 41.1177]}}, {"type": "Feature", "properties": {"bright_ti4": "307.85", "scan": "0.56", "track": "0.43", "acq_date": "2023-08-23", "acq_time": "2347", "satellite": "N", "instrument": "VIIRS", "confidence": "n", "version": "2", "bright_ti5": "292.63", "frp": "2.49", "daynight": "N", "type": "0"}, "geometry": {"type": "Point", "coordinates": [26.19555, 41.11901]}}, {"type": "Feature", "properties": {"bright_ti4": "329.99", "scan": "0.55", "track": "0.43", "acq_date": "2023-08-23", "acq_time": "2347", "satellite": "N", "instrument": "VIIRS", "confidence": "n", "version": "2", "bright_ti5": "294.22", "frp": "3.45", "daynight": "N", "type": "0"}, "geometry": {"type": "Point", "coordinates": [26.21496, 41.11705]}}, {"type": "Feature", "properties": {"bright_ti4": "327.95", "scan": "0.56", "track": "0.43", "acq_date": "2023-08-23", "acq_time": "2347", "satellite": "N", "instrument": "VIIRS", "confidence": "n", "version": "2", "bright_ti5": "294.22", "frp": "2.49", "daynight": "N", "type": "0"}, "geometry": {"type": "Point", "coordinates": [26.20214, 41.11835]}}, {"type": "Feature", "properties": {"bright_ti4": "309.06", "scan": "0.56", "track": "0.43", "acq_date": "2023-08-23", "acq_time": "2347", "satellite": "N", "instrument": "VIIRS", "confidence": "n", "version": "2", "bright_ti5": "292.74", "frp": "2.49", "daynight": "N", "type": "0"}, "geometry": {"type": "Point", "coordinates": [26.19578, 41.12302]}}, {"type": "Feature", "properties": {"bright_ti4": "338.72", "scan": "0.38", "track": "0.36", "acq_date": "2023-08-24", "acq_time": "1110", "satellite": "N", "instrument": "VIIRS", "confidence": "n", "version": "2", "bright_ti5": "310.05", "frp": "17.69", "daynight": "D", "type": "0"}, "geometry": {"type": "Point", "coordinates": [26.21237, 41.11777]}}, {"type": "Feature", "properties": {"bright_ti4": "335.03", "scan": "0.38", "track": "0.36", "acq_date": "2023-08-24", "acq_time": "1110", "satellite": "N", "instrument": "VIIRS", "confidence": "n", "version": "2", "bright_ti5": "303.57", "frp": "4.87", "daynight": "D", "type": "0"}, "geometry": {"type": "Point", "coordinates": [26.20154, 41.12296]}}, {"type": "Feature", "properties": {"bright_ti4": "348.17", "scan": "0.38", "track": "0.36", "acq_date": "2023-08-24", "acq_time": "1110", "satellite": "N", "instrument": "VIIRS", "confidence": "n", "version": "2", "bright_ti5": "303.09", "frp": "4.94", "daynight": "D", "type": "0"}, "geometry": {"type": "Point", "coordinates": [26.20608, 41.12365]}}, {"type": "Feature", "properties": {"bright_ti4": "341.89", "scan": "0.38", "track": "0.36", "acq_date": "2023-08-24", "acq_time": "1110", "satellite": "N", "instrument": "VIIRS", "confidence": "n", "version": "2", "bright_ti5": "303.85", "frp": "3.55", "daynight": "D", "type": "0"}, "geometry": {"type": "Point", "coordinates": [26.20242, 41.11967]}}, {"type": "Feature", "properties": {"bright_ti4": "343.71", "scan": "0.38", "track": "0.36", "acq_date": "2023-08-24", "acq_time": "1110", "satellite": "N", "instrument": "VIIRS", "confidence": "n", "version": "2", "bright_ti5": "308.48", "frp": "17.69", "daynight": "D", "type": "0"}, "geometry": {"type": "Point", "coordinates": [26.20695, 41.12037]}}, {"type": "Feature", "properties": {"bright_ti4": "352.17", "scan": "0.38", "track": "0.36", "acq_date": "2023-08-24", "acq_time": "1110", "satellite": "N", "instrument": "VIIRS", "confidence": "n", "version": "2", "bright_ti5": "312.77", "frp": "17.69", "daynight": "D", "type": "0"}, "geometry": {"type": "Point", "coordinates": [26.21149, 41.12106]}}, {"type": "Feature", "properties": {"bright_ti4": "313.51", "scan": "0.32", "track": "0.55", "acq_date": "2023-08-24", "acq_time": "2328", "satellite": "N", "instrument": "VIIRS", "confidence": "n", "version": "2", "bright_ti5": "291.45", "frp": "1.28", "daynight": "N", "type": "0"}, "geometry": {"type": "Point", "coordinates": [26.20877, 41.127]}}, {"type": "Feature", "properties": {"bright_ti4": "301.7", "scan": "0.46", "track": "0.64", "acq_date": "2023-08-25", "acq_time": "0109", "satellite": "N", "instrument": "VIIRS", "confidence": "n", "version": "2", "bright_ti5": "289.24", "frp": "1.81", "daynight": "N", "type": "0"}, "geometry": {"type": "Point", "coordinates": [26.20904, 41.12834]}}, {"type": "Feature", "properties": {"bright_ti4": "307.59", "scan": "0.46", "track": "0.64", "acq_date": "2023-08-25", "acq_time": "0109", "satellite": "N", "instrument": "VIIRS", "confidence": "n", "version": "2", "bright_ti5": "289.68", "frp": "1.64", "daynight": "N", "type": "0"}, "geometry": {"type": "Point", "coordinates": [26.20883, 41.12716]}}]}