{
  "type": "FeatureCollection",
  "name": "cci_cells",
  "note": "UNIT_TEST_VECTOR: клетки построены заглушкой, weight_ha распределён равномерно по площади запроса.",
  "features": [
    {
      "type": "Feature",
      "geometry": {
        "type": "Polygon",
        "coordinates": [
          [
            [
              40.66975,
              59.43
            ],
            [
              40.70175,
              59.43
            ],
            [
              40.70175,
              59.4325
            ],
            [
              40.66975,
              59.4325
            ],
            [
              40.66975,
              59.43
            ]
          ]
        ]
      },
      "properties": {
        "cell_id": "RU_VOLOGDA_02:r0c0",
        "parent_aoi_id": "RU_VOLOGDA_02",
        "row": 0,
        "col": 0,
        "weight_ha": 37.409488516179564,
        "agb_t_ha": {
          "2020": 75.0,
          "2021": 76.0,
          "2022": 77.0,
          "2023": 78.0,
          "2024": 79.0
        },
        "agb_sd_t_ha": {
          "2020": 5.0,
          "2021": 5.0,
          "2022": 5.0,
          "2023": 5.0,
          "2024": 5.0
        },
        "valid": true
      }
    },
    {
      "type": "Feature",
      "geometry": {
        "type": "Polygon",
        "coordinates": [
          [
            [
              40.66975,
              59.4325
            ],
            [
              40.70175,
              59.4325
            ],
            [
              40.70175,
              59.435
            ],
            [
              40.66975,
              59.435
            ],
            [
              40.66975,
              59.4325
            ]
          ]
        ]
      },
      "properties": {
        "cell_id": "RU_VOLOGDA_02:r1c0",
        "parent_aoi_id": "RU_VOLOGDA_02",
        "row": 1,
        "col": 0,
        "weight_ha": 37.409488516179564,
        "agb_t_ha": {
          "2020": 75.0,
          "2021": 76.0,
          "2022": 77.0,
          "2023": 78.0,
          "2024": 79.0
        },
        "agb_sd_t_ha": {
          "2020": 5.0,
          "2021": 5.0,
          "2022": 5.0,
          "2023": 5.0,
          "2024": 5.0
        },
        "valid": true
      }
    },
    {
      "type": "Feature",
      "geometry": {
        "type": "Polygon",
        "coordinates": [
          [
            [
              40.66975,
              59.435
            ],
            [
              40.70175,
              59.435
            ],
            [
              40.70175,
              59.4375
            ],
            [
              40.66975,
              59.4375
            ],
            [
              40.66975,
              59.435
            ]
          ]
        ]
      },
      "properties": {
        "cell_id": "RU_VOLOGDA_02:r2c0",
        "parent_aoi_id": "RU_VOLOGDA_02",
        "row": 2,
        "col": 0,
        "weight_ha": 37.409488516179564,
        "agb_t_ha": {
          "2020": 75.0,
          "2021": 76.0,
          "2022": 77.0,
          "2023": 78.0,
          "2024": 79.0
        },
        "agb_sd_t_ha": {
          "2020": 5.0,
          "2021": 5.0,
          "2022": 5.0,
          "2023": 5.0,
          "2024": 5.0
        },
        "valid": true
      }
    },
    {
      "type": "Feature",
      "geometry": {
        "type": "Polygon",
        "coordinates": [
          [
            [
              40.66975,
              59.4375
            ],
            [
              40.70175,
              59.4375
            ],
            [
              40.70175,
              59.44
            ],
            [
              40.66975,
              59.44
            ],
            [
              40.66975,
              59.4375
            ]
          ]
        ]
      },
      "properties": {
        "cell_id": "RU_VOLOGDA_02:r3c0",
        "parent_aoi_id": "RU_VOLOGDA_02",
        "row": 3,
        "col": 0,
        "weight_ha": 37.409488516179564,
        "agb_t_ha": {
          "2020": 75.0,
          "2021": 76.0,
          "2022": 77.0,
          "2023": 78.0,
          "2024": 79.0
        },
        "agb_sd_t_ha": {
          "2020": 5.0,
          "2021": 5.0,
          "2022": 5.0,
          "2023": 5.0,
          "2024": 5.0
        },
        "valid": true
      }
    },
    {
      "type": "Feature",
      "geometry": {
        "type": "Polygon",
        "coordinates": [
          [
            [
              40.66975,
              59.44
            ],
            [
              40.70175,
              59.44
            ],
            [
              40.70175,
              59.4425
            ],
            [
              40.66975,
              59.4425
            ],
            [
              40.66975,
              59.44
            ]
          ]
        ]
      },
      "properties": {
        "cell_id": "RU_VOLOGDA_02:r4c0",
        "parent_aoi_id": "RU_VOLOGDA_02",
        "row": 4,
        "col": 0,
        "weight_ha": 37.409488516179564,
        "agb_t_ha": {
          "2020": 75.0,
          "2021": 76.0,
          "2022": 77.0,
          "2023": 78.0,
          "2024": 79.0
        },
        "agb_sd_t_ha": {
          "2020": 5.0,
          "2021": 5.0,
          "2022": 5.0,
          "2023": 5.0,
          "2024": 5.0
        },
        "valid": true
      }
    },
    {
      "type": "Feature",
      "geometry": {
        "type": "Polygon",
        "coordinates": [
          [
            [
              40.66975,
              59.4425
            ],
            [
              40.70175,
              59.4425
            ],
            [
              40.70175,
              59.445
            ],
            [
              40.66975,
              59.445
            ],
            [
              40.66975,
              59.4425
            ]
          ]
        ]
      },
      "properties": {
        "cell_id": "RU_VOLOGDA_02:r5c0",
        "parent_aoi_id": "RU_VOLOGDA_02",
        "row": 5,
        "col": 0,
        "weight_ha": 37.409488516179564,
        "agb_t_ha": {
          "2020": 75.0,
          "2021": 76.0,
          "2022": 77.0,
          "2023": 78.0,
          "2024": 79.0
        },
        "agb_sd_t_ha": {
          "2020": 5.0,
          "2021": 5.0,
          "2022": 5.0,
          "2023": 5.0,
          "2024": 5.0
        },
        "valid": true
      }
    },
    {
      "type": "Feature",
      "geometry": {
        "type": "Polygon",
        "coordinates": [
          [
            [
              40.66975,
              59.445
            ],
            [
              40.70175,
              59.445
            ],
            [
              40.70175,
              59.4475
            ],
            [
              40.66975,
              59.4475
            ],
            [
              40.66975,
              59.445
            ]
          ]
        ]
      },
      "properties": {
        "cell_id": "RU_VOLOGDA_02:r6c0",
        "parent_aoi_id": "RU_VOLOGDA_02",
        "row": 6,
        "col": 0,
        "weight_ha": 37.409488516179564,
        "agb_t_ha": {
          "2020": 75.0,
          "2021": 76.0,
          "2022": 77.0,
          "2023": 78.0,
          "2024": 79.0
        },
        "agb_sd_t_ha": {
          "2020": 5.0,
          "2021": 5.0,
          "2022": 5.0,
          "2023": 5.0,
          "2024": 5.0
        },
        "valid": true
      }
    },
    {
      "type": "Feature",
      "geometry": {
        "type": "Polygon",
        "coordinates": [
          [
            [
              40.66975,
              59.4475
            ],
            [
              40.70175,
              59.4475
            ],
            [
              40.70175,
              59.45
            ],
            [
              40.66975,
              59.45
            ],
            [
              40.66975,
              59.4475
            ]
          ]
        ]
      },
      "properties": {
        "cell_id": "RU_VOLOGDA_02:r7c0",
        "parent_aoi_id": "RU_VOLOGDA_02",
        "row": 7,
        "col": 0,
        "weight_ha": 37.409488516179564,
        "agb_t_ha": {
          "2020": 75.0,
          "2021": 76.0,
          "2022": 77.0,
          "2023": 78.0,
          "2024": 79.0
        },
        "agb_sd_t_ha": {
          "2020": 5.0,
          "2021": 5.0,
          "2022": 5.0,
          "2023": 5.0,
          "2024": 5.0
        },
        "valid": true
      }
    },
    {
      "type": "Feature",
      "geometry": {
        "type": "Polygon",
        "coordinates": [
          [
            [
              40.66975,
              59.45
            ],
            [
              40.70175,
              59.45
            ],
            [
              40.70175,
              59.4525
            ],
            [
              40.66975,
              59.4525
            ],
            [
              40.66975,
              59.45
            ]
          ]
        ]
      },
      "properties": {
        "cell_id": "RU_VOLOGDA_02:r8c0",
        "parent_aoi_id": "RU_VOLOGDA_02",
        "row": 8,
        "col": 0,
        "weight_ha": 37.409488516179564,
        "agb_t_ha": {
          "2020": 75.0,
          "2021": 76.0,
          "2022": 77.0,
          "2023": 78.0,
          "2024": 79.0
        },
        "agb_sd_t_ha": {
          "2020": 5.0,
          "2021": 5.0,
          "2022": 5.0,
          "2023": 5.0,
          "2024": 5.0
        },
        "valid": true
      }
    },
    {
      "type": "Feature",
      "geometry": {
        "type": "Polygon",
        "coordinates": [
          [
            [
              40.66975,
              59.4525
            ],
            [
              40.70175,
              59.4525
            ],
            [
              40.70175,
              59.455
            ],
            [
              40.66975,
              59.455
            ],
            [
              40.66975,
              59.4525
            ]
          ]
        ]
      },
      "properties": {
        "cell_id": "RU_VOLOGDA_02:r9c0",
        "parent_aoi_id": "RU_VOLOGDA_02",
        "row": 9,
        "col": 0,
        "weight_ha": 37.409488516179564,
        "agb_t_ha": {
          "2020": 75.0,
          "2021": 76.0,
          "2022": 77.0,
          "2023": 78.0,
          "2024": 79.0
        },
        "agb_sd_t_ha": {
          "2020": 5.0,
          "2021": 5.0,
          "2022": 5.0,
          "2023": 5.0,
          "2024": 5.0
        },
        "valid": true
      }
    },
    {
      "type": "Feature",
      "geometry": {
        "type": "Polygon",
        "coordinates": [
          [
            [
              40.66975,
              59.455
            ],
            [
              40.70175,
              59.455
            ],
            [
              40.70175,
              59.4575
            ],
            [
              40.66975,
              59.4575
            ],
            [
              40.66975,
              59.455
            ]
          ]
        ]
      },
      "properties": {
        "cell_id": "RU_VOLOGDA_02:r10c0",
        "parent_aoi_id": "RU_VOLOGDA_02",
        "row": 10,
        "col": 0,
        "weight_ha": 37.409488516179564,
        "agb_t_ha": {
          "2020": 75.0,
          "2021": 76.0,
          "2022": 77.0,
          "2023": 78.0,
          "2024": 79.0
        },
        "agb_sd_t_ha": {
          "2020": 5.0,
          "2021": 5.0,
          "2022": 5.0,
          "2023": 5.0,
          "2024": 5.0
        },
        "valid": true
      }
    },
    {
      "type": "Feature",
      "geometry": {
        "type": "Polygon",
        "coordinates": [
          [
            [
              40.66975,
              59.4575
            ],
            [
              40.70175,
              59.4575
            ],
            [
              40.70175,
              59.46
            ],
            [
              40.66975,
              59.46
            ],
            [
              40.66975,
              59.4575
            ]
          ]
        ]
      },
      "properties": {
        "cell_id": "RU_VOLOGDA_02:r11c0",
        "parent_aoi_id": "RU_VOLOGDA_02",
        "row": 11,
        "col": 0,
        "weight_ha": 37.409488516179564,
        "agb_t_ha": {
          "2020": 75.0,
          "2021": 76.0,
          "2022": 77.0,
          "2023": 78.0,
          "2024": 79.0
        },
        "agb_sd_t_ha": {
          "2020": 5.0,
          "2021": 5.0,
          "2022": 5.0,
          "2023": 5.0,
          "2024": 5.0
        },
        "valid": true
      }
    },
    {
      "type": "Feature",
      "geometry": {
        "type": "Polygon",
        "coordinates": [
          [
            [
              40.66975,
              59.46
            ],
            [
              40.70175,
              59.46
            ],
            [
              40.70175,
              59.4625
            ],
            [
              40.66975,
              59.4625
            ],
            [
              40.66975,
              59.46
            ]
          ]
        ]
      },
      "properties": {
        "cell_id": "RU_VOLOGDA_02:r12c0",
        "parent_aoi_id": "RU_VOLOGDA_02",
        "row": 12,
        "col": 0,
        "weight_ha": 37.409488516179564,
        "agb_t_ha": {
          "2020": 75.0,
          "2021": 76.0,
          "2022": 77.0,
          "2023": 78.0,
          "2024": 79.0
        },
        "agb_sd_t_ha": {
          "2020": 5.0,
          "2021": 5.0,
          "2022": 5.0,
          "2023": 5.0,
          "2024": 5.0
        },
        "valid": true
      }
    },
    {
      "type": "Feature",
      "geometry": {
        "type": "Polygon",
        "coordinates": [
          [
            [
              40.66975,
              59.4625
            ],
            [
              40.70175,
              59.4625
            ],
            [
              40.70175,
              59.465
            ],
            [
              40.66975,
              59.465
            ],
            [
              40.66975,
              59.4625
            ]
          ]
        ]
      },
      "properties": {
        "cell_id": "RU_VOLOGDA_02:r13c0",
        "parent_aoi_id": "RU_VOLOGDA_02",
        "row": 13,
        "col": 0,
        "weight_ha": 37.409488516179564,
        "agb_t_ha": {
          "2020": 75.0,
          "2021": 76.0,
          "2022": 77.0,
          "2023": 78.0,
          "2024": 79.0
        },
        "agb_sd_t_ha": {
          "2020": 5.0,
          "2021": 5.0,
          "2022": 5.0,
          "2023": 5.0,
          "2024": 5.0
        },
        "valid": true
      }
    },
    {
      "type": "Feature",
      "geometry": {
        "type": "Polygon",
        "coordinates": [
          [
            [
              40.66975,
              59.465
            ],
            [
              40.70175,
              59.465
            ],
            [
              40.70175,
              59.4675
            ],
            [
              40.66975,
              59.4675
            ],
            [
              40.66975,
              59.465
            ]
          ]
        ]
      },
      "properties": {
        "cell_id": "RU_VOLOGDA_02:r14c0",
        "parent_aoi_id": "RU_VOLOGDA_02",
        "row": 14,
        "col": 0,
        "weight_ha": 37.409488516179564,
        "agb_t_ha": {
          "2020": 75.0,
          "2021": 76.0,
          "2022": 77.0,
          "2023": 78.0,
          "2024": 79.0
        },
        "agb_sd_t_ha": {
          "2020": 5.0,
          "2021": 5.0,
          "2022": 5.0,
          "2023": 5.0,
          "2024": 5.0
        },
        "valid": true
      }
    },
    {
      "type": "Feature",
      "geometry": {
        "type": "Polygon",
        "coordinates": [
          [
            [
              40.66975,
              59.4675
            ],
            [
              40.70175,
              59.4675
            ],
            [
              40.70175,
              59.47
            ],
            [
              40.66975,
              59.47
            ],
            [
              40.66975,
              59.4675
            ]
          ]
        ]
      },
      "properties": {
        "cell_id": "RU_VOLOGDA_02:r15c0",
        "parent_aoi_id": "RU_VOLOGDA_02",
        "row": 15,
        "col": 0,
        "weight_ha": 37.409488516179564,
        "agb_t_ha": {
          "2020": 75.0,
          "2021": 76.0,
          "2022": 77.0,
          "2023": 78.0,
          "2024": 79.0
        },
        "agb_sd_t_ha": {
          "2020": 5.0,
          "2021": 5.0,
          "2022": 5.0,
          "2023": 5.0,
          "2024": 5.0
        },
        "valid": true
      }
    }
  ]
}
