{
  "type": "FeatureCollection",
  "name": "cci_cells",
  "note": "UNIT_TEST_VECTOR: клетки построены заглушкой, weight_ha распределён равномерно по площади запроса.",
  "features": [
    {
      "type": "Feature",
      "geometry": {
        "type": "Polygon",
        "coordinates": [
          [
            [
              43.17,
              54.85025
            ],
            [
              43.234,
              54.85025
            ],
            [
              43.234,
              54.85275
            ],
            [
              43.17,
              54.85275
            ],
            [
              43.17,
              54.85025
            ]
          ]
        ]
      },
      "properties": {
        "cell_id": "RU_MORDOVIA_03:r0c0",
        "parent_aoi_id": "RU_MORDOVIA_03",
        "row": 0,
        "col": 0,
        "weight_ha": 114.34989798407554,
        "agb_t_ha": {
          "2020": 34.0,
          "2021": 33.0,
          "2022": 33.5
        },
        "agb_sd_t_ha": {
          "2020": 31.0,
          "2021": 31.0,
          "2022": 31.0
        },
        "valid": true
      }
    },
    {
      "type": "Feature",
      "geometry": {
        "type": "Polygon",
        "coordinates": [
          [
            [
              43.17,
              54.85275
            ],
            [
              43.234,
              54.85275
            ],
            [
              43.234,
              54.85525
            ],
            [
              43.17,
              54.85525
            ],
            [
              43.17,
              54.85275
            ]
          ]
        ]
      },
      "properties": {
        "cell_id": "RU_MORDOVIA_03:r1c0",
        "parent_aoi_id": "RU_MORDOVIA_03",
        "row": 1,
        "col": 0,
        "weight_ha": 114.34989798407554,
        "agb_t_ha": {
          "2020": 34.0,
          "2021": 33.0,
          "2022": 33.5
        },
        "agb_sd_t_ha": {
          "2020": 31.0,
          "2021": 31.0,
          "2022": 31.0
        },
        "valid": true
      }
    },
    {
      "type": "Feature",
      "geometry": {
        "type": "Polygon",
        "coordinates": [
          [
            [
              43.17,
              54.85525
            ],
            [
              43.234,
              54.85525
            ],
            [
              43.234,
              54.85775
            ],
            [
              43.17,
              54.85775
            ],
            [
              43.17,
              54.85525
            ]
          ]
        ]
      },
      "properties": {
        "cell_id": "RU_MORDOVIA_03:r2c0",
        "parent_aoi_id": "RU_MORDOVIA_03",
        "row": 2,
        "col": 0,
        "weight_ha": 114.34989798407554,
        "agb_t_ha": {
          "2020": 34.0,
          "2021": 33.0,
          "2022": 33.5
        },
        "agb_sd_t_ha": {
          "2020": 31.0,
          "2021": 31.0,
          "2022": 31.0
        },
        "valid": true
      }
    },
    {
      "type": "Feature",
      "geometry": {
        "type": "Polygon",
        "coordinates": [
          [
            [
              43.17,
              54.85775
            ],
            [
              43.234,
              54.85775
            ],
            [
              43.234,
              54.86025
            ],
            [
              43.17,
              54.86025
            ],
            [
              43.17,
              54.85775
            ]
          ]
        ]
      },
      "properties": {
        "cell_id": "RU_MORDOVIA_03:r3c0",
        "parent_aoi_id": "RU_MORDOVIA_03",
        "row": 3,
        "col": 0,
        "weight_ha": 114.34989798407554,
        "agb_t_ha": {
          "2020": 34.0,
          "2021": 33.0,
          "2022": 33.5
        },
        "agb_sd_t_ha": {
          "2020": 31.0,
          "2021": 31.0,
          "2022": 31.0
        },
        "valid": true
      }
    },
    {
      "type": "Feature",
      "geometry": {
        "type": "Polygon",
        "coordinates": [
          [
            [
              43.17,
              54.86025
            ],
            [
              43.234,
              54.86025
            ],
            [
              43.234,
              54.86275
            ],
            [
              43.17,
              54.86275
            ],
            [
              43.17,
              54.86025
            ]
          ]
        ]
      },
      "properties": {
        "cell_id": "RU_MORDOVIA_03:r4c0",
        "parent_aoi_id": "RU_MORDOVIA_03",
        "row": 4,
        "col": 0,
        "weight_ha": 114.34989798407554,
        "agb_t_ha": {
          "2020": 34.0,
          "2021": 33.0,
          "2022": 33.5
        },
        "agb_sd_t_ha": {
          "2020": 31.0,
          "2021": 31.0,
          "2022": 31.0
        },
        "valid": true
      }
    },
    {
      "type": "Feature",
      "geometry": {
        "type": "Polygon",
        "coordinates": [
          [
            [
              43.17,
              54.86275
            ],
            [
              43.234,
              54.86275
            ],
            [
              43.234,
              54.86525
            ],
            [
              43.17,
              54.86525
            ],
            [
              43.17,
              54.86275
            ]
          ]
        ]
      },
      "properties": {
        "cell_id": "RU_MORDOVIA_03:r5c0",
        "parent_aoi_id": "RU_MORDOVIA_03",
        "row": 5,
        "col": 0,
        "weight_ha": 114.34989798407554,
        "agb_t_ha": {
          "2020": 34.0,
          "2021": 33.0,
          "2022": 33.5
        },
        "agb_sd_t_ha": {
          "2020": 31.0,
          "2021": 31.0,
          "2022": 31.0
        },
        "valid": true
      }
    },
    {
      "type": "Feature",
      "geometry": {
        "type": "Polygon",
        "coordinates": [
          [
            [
              43.17,
              54.86525
            ],
            [
              43.234,
              54.86525
            ],
            [
              43.234,
              54.86775
            ],
            [
              43.17,
              54.86775
            ],
            [
              43.17,
              54.86525
            ]
          ]
        ]
      },
      "properties": {
        "cell_id": "RU_MORDOVIA_03:r6c0",
        "parent_aoi_id": "RU_MORDOVIA_03",
        "row": 6,
        "col": 0,
        "weight_ha": 114.34989798407554,
        "agb_t_ha": {
          "2020": 34.0,
          "2021": 33.0,
          "2022": 33.5
        },
        "agb_sd_t_ha": {
          "2020": 31.0,
          "2021": 31.0,
          "2022": 31.0
        },
        "valid": true
      }
    },
    {
      "type": "Feature",
      "geometry": {
        "type": "Polygon",
        "coordinates": [
          [
            [
              43.17,
              54.86775
            ],
            [
              43.234,
              54.86775
            ],
            [
              43.234,
              54.87025
            ],
            [
              43.17,
              54.87025
            ],
            [
              43.17,
              54.86775
            ]
          ]
        ]
      },
      "properties": {
        "cell_id": "RU_MORDOVIA_03:r7c0",
        "parent_aoi_id": "RU_MORDOVIA_03",
        "row": 7,
        "col": 0,
        "weight_ha": 114.34989798407554,
        "agb_t_ha": {
          "2020": 34.0,
          "2021": 33.0,
          "2022": 33.5
        },
        "agb_sd_t_ha": {
          "2020": 31.0,
          "2021": 31.0,
          "2022": 31.0
        },
        "valid": true
      }
    },
    {
      "type": "Feature",
      "geometry": {
        "type": "Polygon",
        "coordinates": [
          [
            [
              43.17,
              54.87025
            ],
            [
              43.234,
              54.87025
            ],
            [
              43.234,
              54.87275
            ],
            [
              43.17,
              54.87275
            ],
            [
              43.17,
              54.87025
            ]
          ]
        ]
      },
      "properties": {
        "cell_id": "RU_MORDOVIA_03:r8c0",
        "parent_aoi_id": "RU_MORDOVIA_03",
        "row": 8,
        "col": 0,
        "weight_ha": 114.34989798407554,
        "agb_t_ha": {
          "2020": 34.0,
          "2021": 33.0,
          "2022": 33.5
        },
        "agb_sd_t_ha": {
          "2020": 31.0,
          "2021": 31.0,
          "2022": 31.0
        },
        "valid": true
      }
    },
    {
      "type": "Feature",
      "geometry": {
        "type": "Polygon",
        "coordinates": [
          [
            [
              43.17,
              54.87275
            ],
            [
              43.234,
              54.87275
            ],
            [
              43.234,
              54.87525
            ],
            [
              43.17,
              54.87525
            ],
            [
              43.17,
              54.87275
            ]
          ]
        ]
      },
      "properties": {
        "cell_id": "RU_MORDOVIA_03:r9c0",
        "parent_aoi_id": "RU_MORDOVIA_03",
        "row": 9,
        "col": 0,
        "weight_ha": 114.34989798407554,
        "agb_t_ha": {
          "2020": 34.0,
          "2021": 33.0,
          "2022": 33.5
        },
        "agb_sd_t_ha": {
          "2020": 31.0,
          "2021": 31.0,
          "2022": 31.0
        },
        "valid": true
      }
    },
    {
      "type": "Feature",
      "geometry": {
        "type": "Polygon",
        "coordinates": [
          [
            [
              43.17,
              54.87525
            ],
            [
              43.234,
              54.87525
            ],
            [
              43.234,
              54.87775
            ],
            [
              43.17,
              54.87775
            ],
            [
              43.17,
              54.87525
            ]
          ]
        ]
      },
      "properties": {
        "cell_id": "RU_MORDOVIA_03:r10c0",
        "parent_aoi_id": "RU_MORDOVIA_03",
        "row": 10,
        "col": 0,
        "weight_ha": 114.34989798407554,
        "agb_t_ha": {
          "2020": 34.0,
          "2021": 33.0,
          "2022": 33.5
        },
        "agb_sd_t_ha": {
          "2020": 31.0,
          "2021": 31.0,
          "2022": 31.0
        },
        "valid": true
      }
    },
    {
      "type": "Feature",
      "geometry": {
        "type": "Polygon",
        "coordinates": [
          [
            [
              43.17,
              54.87775
            ],
            [
              43.234,
              54.87775
            ],
            [
              43.234,
              54.88025
            ],
            [
              43.17,
              54.88025
            ],
            [
              43.17,
              54.87775
            ]
          ]
        ]
      },
      "properties": {
        "cell_id": "RU_MORDOVIA_03:r11c0",
        "parent_aoi_id": "RU_MORDOVIA_03",
        "row": 11,
        "col": 0,
        "weight_ha": 114.34989798407554,
        "agb_t_ha": {
          "2020": 34.0,
          "2021": 33.0,
          "2022": 33.5
        },
        "agb_sd_t_ha": {
          "2020": 31.0,
          "2021": 31.0,
          "2022": 31.0
        },
        "valid": true
      }
    },
    {
      "type": "Feature",
      "geometry": {
        "type": "Polygon",
        "coordinates": [
          [
            [
              43.17,
              54.88025
            ],
            [
              43.234,
              54.88025
            ],
            [
              43.234,
              54.88275
            ],
            [
              43.17,
              54.88275
            ],
            [
              43.17,
              54.88025
            ]
          ]
        ]
      },
      "properties": {
        "cell_id": "RU_MORDOVIA_03:r12c0",
        "parent_aoi_id": "RU_MORDOVIA_03",
        "row": 12,
        "col": 0,
        "weight_ha": 114.34989798407554,
        "agb_t_ha": {
          "2020": 34.0,
          "2021": 33.0,
          "2022": 33.5
        },
        "agb_sd_t_ha": {
          "2020": 31.0,
          "2021": 31.0,
          "2022": 31.0
        },
        "valid": true
      }
    },
    {
      "type": "Feature",
      "geometry": {
        "type": "Polygon",
        "coordinates": [
          [
            [
              43.17,
              54.88275
            ],
            [
              43.234,
              54.88275
            ],
            [
              43.234,
              54.88525
            ],
            [
              43.17,
              54.88525
            ],
            [
              43.17,
              54.88275
            ]
          ]
        ]
      },
      "properties": {
        "cell_id": "RU_MORDOVIA_03:r13c0",
        "parent_aoi_id": "RU_MORDOVIA_03",
        "row": 13,
        "col": 0,
        "weight_ha": 114.34989798407554,
        "agb_t_ha": {
          "2020": 34.0,
          "2021": 33.0,
          "2022": 33.5
        },
        "agb_sd_t_ha": {
          "2020": 31.0,
          "2021": 31.0,
          "2022": 31.0
        },
        "valid": true
      }
    },
    {
      "type": "Feature",
      "geometry": {
        "type": "Polygon",
        "coordinates": [
          [
            [
              43.17,
              54.88525
            ],
            [
              43.234,
              54.88525
            ],
            [
              43.234,
              54.88775
            ],
            [
              43.17,
              54.88775
            ],
            [
              43.17,
              54.88525
            ]
          ]
        ]
      },
      "properties": {
        "cell_id": "RU_MORDOVIA_03:r14c0",
        "parent_aoi_id": "RU_MORDOVIA_03",
        "row": 14,
        "col": 0,
        "weight_ha": 114.34989798407554,
        "agb_t_ha": {
          "2020": 34.0,
          "2021": 33.0,
          "2022": 33.5
        },
        "agb_sd_t_ha": {
          "2020": 31.0,
          "2021": 31.0,
          "2022": 31.0
        },
        "valid": true
      }
    },
    {
      "type": "Feature",
      "geometry": {
        "type": "Polygon",
        "coordinates": [
          [
            [
              43.17,
              54.88775
            ],
            [
              43.234,
              54.88775
            ],
            [
              43.234,
              54.89025
            ],
            [
              43.17,
              54.89025
            ],
            [
              43.17,
              54.88775
            ]
          ]
        ]
      },
      "properties": {
        "cell_id": "RU_MORDOVIA_03:r15c0",
        "parent_aoi_id": "RU_MORDOVIA_03",
        "row": 15,
        "col": 0,
        "weight_ha": 114.34989798407554,
        "agb_t_ha": {
          "2020": 34.0,
          "2021": 33.0,
          "2022": 33.5
        },
        "agb_sd_t_ha": {
          "2020": 31.0,
          "2021": 31.0,
          "2022": 31.0
        },
        "valid": true
      }
    }
  ]
}
