{
  "type": "FeatureCollection",
  "name": "cci_cells",
  "note": "UNIT_TEST_VECTOR: клетки построены заглушкой, weight_ha распределён равномерно по площади запроса.",
  "features": [
    {
      "type": "Feature",
      "geometry": {
        "type": "Polygon",
        "coordinates": [
          [
            [
              32.91,
              56.59
            ],
            [
              32.974,
              56.59
            ],
            [
              32.974,
              56.5925
            ],
            [
              32.91,
              56.5925
            ],
            [
              32.91,
              56.59
            ]
          ]
        ]
      },
      "properties": {
        "cell_id": "RU_TVER_01:r0c0",
        "parent_aoi_id": "RU_TVER_01",
        "row": 0,
        "col": 0,
        "weight_ha": 109.40457023410796,
        "agb_t_ha": {
          "2019": 85.0,
          "2020": 87.0,
          "2021": 89.0,
          "2022": 91.0,
          "2023": 93.0,
          "2024": 95.0
        },
        "agb_sd_t_ha": {
          "2019": 4.0,
          "2020": 4.0,
          "2021": 4.0,
          "2022": 4.0,
          "2023": 4.0,
          "2024": 4.0
        },
        "valid": true
      }
    },
    {
      "type": "Feature",
      "geometry": {
        "type": "Polygon",
        "coordinates": [
          [
            [
              32.91,
              56.5925
            ],
            [
              32.974,
              56.5925
            ],
            [
              32.974,
              56.595
            ],
            [
              32.91,
              56.595
            ],
            [
              32.91,
              56.5925
            ]
          ]
        ]
      },
      "properties": {
        "cell_id": "RU_TVER_01:r1c0",
        "parent_aoi_id": "RU_TVER_01",
        "row": 1,
        "col": 0,
        "weight_ha": 109.40457023410796,
        "agb_t_ha": {
          "2019": 85.0,
          "2020": 87.0,
          "2021": 89.0,
          "2022": 91.0,
          "2023": 93.0,
          "2024": 95.0
        },
        "agb_sd_t_ha": {
          "2019": 4.0,
          "2020": 4.0,
          "2021": 4.0,
          "2022": 4.0,
          "2023": 4.0,
          "2024": 4.0
        },
        "valid": true
      }
    },
    {
      "type": "Feature",
      "geometry": {
        "type": "Polygon",
        "coordinates": [
          [
            [
              32.91,
              56.595
            ],
            [
              32.974,
              56.595
            ],
            [
              32.974,
              56.5975
            ],
            [
              32.91,
              56.5975
            ],
            [
              32.91,
              56.595
            ]
          ]
        ]
      },
      "properties": {
        "cell_id": "RU_TVER_01:r2c0",
        "parent_aoi_id": "RU_TVER_01",
        "row": 2,
        "col": 0,
        "weight_ha": 109.40457023410796,
        "agb_t_ha": {
          "2019": 85.0,
          "2020": 87.0,
          "2021": 89.0,
          "2022": 91.0,
          "2023": 93.0,
          "2024": 95.0
        },
        "agb_sd_t_ha": {
          "2019": 4.0,
          "2020": 4.0,
          "2021": 4.0,
          "2022": 4.0,
          "2023": 4.0,
          "2024": 4.0
        },
        "valid": true
      }
    },
    {
      "type": "Feature",
      "geometry": {
        "type": "Polygon",
        "coordinates": [
          [
            [
              32.91,
              56.5975
            ],
            [
              32.974,
              56.5975
            ],
            [
              32.974,
              56.6
            ],
            [
              32.91,
              56.6
            ],
            [
              32.91,
              56.5975
            ]
          ]
        ]
      },
      "properties": {
        "cell_id": "RU_TVER_01:r3c0",
        "parent_aoi_id": "RU_TVER_01",
        "row": 3,
        "col": 0,
        "weight_ha": 109.40457023410796,
        "agb_t_ha": {
          "2019": 85.0,
          "2020": 87.0,
          "2021": 89.0,
          "2022": 91.0,
          "2023": 93.0,
          "2024": 95.0
        },
        "agb_sd_t_ha": {
          "2019": 4.0,
          "2020": 4.0,
          "2021": 4.0,
          "2022": 4.0,
          "2023": 4.0,
          "2024": 4.0
        },
        "valid": true
      }
    },
    {
      "type": "Feature",
      "geometry": {
        "type": "Polygon",
        "coordinates": [
          [
            [
              32.91,
              56.6
            ],
            [
              32.974,
              56.6
            ],
            [
              32.974,
              56.6025
            ],
            [
              32.91,
              56.6025
            ],
            [
              32.91,
              56.6
            ]
          ]
        ]
      },
      "properties": {
        "cell_id": "RU_TVER_01:r4c0",
        "parent_aoi_id": "RU_TVER_01",
        "row": 4,
        "col": 0,
        "weight_ha": 109.40457023410796,
        "agb_t_ha": {
          "2019": 85.0,
          "2020": 87.0,
          "2021": 89.0,
          "2022": 91.0,
          "2023": 93.0,
          "2024": 95.0
        },
        "agb_sd_t_ha": {
          "2019": 4.0,
          "2020": 4.0,
          "2021": 4.0,
          "2022": 4.0,
          "2023": 4.0,
          "2024": 4.0
        },
        "valid": true
      }
    },
    {
      "type": "Feature",
      "geometry": {
        "type": "Polygon",
        "coordinates": [
          [
            [
              32.91,
              56.6025
            ],
            [
              32.974,
              56.6025
            ],
            [
              32.974,
              56.605
            ],
            [
              32.91,
              56.605
            ],
            [
              32.91,
              56.6025
            ]
          ]
        ]
      },
      "properties": {
        "cell_id": "RU_TVER_01:r5c0",
        "parent_aoi_id": "RU_TVER_01",
        "row": 5,
        "col": 0,
        "weight_ha": 109.40457023410796,
        "agb_t_ha": {
          "2019": 85.0,
          "2020": 87.0,
          "2021": 89.0,
          "2022": 91.0,
          "2023": 93.0,
          "2024": 95.0
        },
        "agb_sd_t_ha": {
          "2019": 4.0,
          "2020": 4.0,
          "2021": 4.0,
          "2022": 4.0,
          "2023": 4.0,
          "2024": 4.0
        },
        "valid": true
      }
    },
    {
      "type": "Feature",
      "geometry": {
        "type": "Polygon",
        "coordinates": [
          [
            [
              32.91,
              56.605
            ],
            [
              32.974,
              56.605
            ],
            [
              32.974,
              56.6075
            ],
            [
              32.91,
              56.6075
            ],
            [
              32.91,
              56.605
            ]
          ]
        ]
      },
      "properties": {
        "cell_id": "RU_TVER_01:r6c0",
        "parent_aoi_id": "RU_TVER_01",
        "row": 6,
        "col": 0,
        "weight_ha": 109.40457023410796,
        "agb_t_ha": {
          "2019": 85.0,
          "2020": 87.0,
          "2021": 89.0,
          "2022": 91.0,
          "2023": 93.0,
          "2024": 95.0
        },
        "agb_sd_t_ha": {
          "2019": 4.0,
          "2020": 4.0,
          "2021": 4.0,
          "2022": 4.0,
          "2023": 4.0,
          "2024": 4.0
        },
        "valid": true
      }
    },
    {
      "type": "Feature",
      "geometry": {
        "type": "Polygon",
        "coordinates": [
          [
            [
              32.91,
              56.6075
            ],
            [
              32.974,
              56.6075
            ],
            [
              32.974,
              56.61
            ],
            [
              32.91,
              56.61
            ],
            [
              32.91,
              56.6075
            ]
          ]
        ]
      },
      "properties": {
        "cell_id": "RU_TVER_01:r7c0",
        "parent_aoi_id": "RU_TVER_01",
        "row": 7,
        "col": 0,
        "weight_ha": 109.40457023410796,
        "agb_t_ha": {
          "2019": 85.0,
          "2020": 87.0,
          "2021": 89.0,
          "2022": 91.0,
          "2023": 93.0,
          "2024": 95.0
        },
        "agb_sd_t_ha": {
          "2019": 4.0,
          "2020": 4.0,
          "2021": 4.0,
          "2022": 4.0,
          "2023": 4.0,
          "2024": 4.0
        },
        "valid": true
      }
    },
    {
      "type": "Feature",
      "geometry": {
        "type": "Polygon",
        "coordinates": [
          [
            [
              32.91,
              56.61
            ],
            [
              32.974,
              56.61
            ],
            [
              32.974,
              56.6125
            ],
            [
              32.91,
              56.6125
            ],
            [
              32.91,
              56.61
            ]
          ]
        ]
      },
      "properties": {
        "cell_id": "RU_TVER_01:r8c0",
        "parent_aoi_id": "RU_TVER_01",
        "row": 8,
        "col": 0,
        "weight_ha": 109.40457023410796,
        "agb_t_ha": {
          "2019": 85.0,
          "2020": 87.0,
          "2021": 89.0,
          "2022": 91.0,
          "2023": 93.0,
          "2024": 95.0
        },
        "agb_sd_t_ha": {
          "2019": 4.0,
          "2020": 4.0,
          "2021": 4.0,
          "2022": 4.0,
          "2023": 4.0,
          "2024": 4.0
        },
        "valid": true
      }
    },
    {
      "type": "Feature",
      "geometry": {
        "type": "Polygon",
        "coordinates": [
          [
            [
              32.91,
              56.6125
            ],
            [
              32.974,
              56.6125
            ],
            [
              32.974,
              56.615
            ],
            [
              32.91,
              56.615
            ],
            [
              32.91,
              56.6125
            ]
          ]
        ]
      },
      "properties": {
        "cell_id": "RU_TVER_01:r9c0",
        "parent_aoi_id": "RU_TVER_01",
        "row": 9,
        "col": 0,
        "weight_ha": 109.40457023410796,
        "agb_t_ha": {
          "2019": 85.0,
          "2020": 87.0,
          "2021": 89.0,
          "2022": 91.0,
          "2023": 93.0,
          "2024": 95.0
        },
        "agb_sd_t_ha": {
          "2019": 4.0,
          "2020": 4.0,
          "2021": 4.0,
          "2022": 4.0,
          "2023": 4.0,
          "2024": 4.0
        },
        "valid": true
      }
    },
    {
      "type": "Feature",
      "geometry": {
        "type": "Polygon",
        "coordinates": [
          [
            [
              32.91,
              56.615
            ],
            [
              32.974,
              56.615
            ],
            [
              32.974,
              56.6175
            ],
            [
              32.91,
              56.6175
            ],
            [
              32.91,
              56.615
            ]
          ]
        ]
      },
      "properties": {
        "cell_id": "RU_TVER_01:r10c0",
        "parent_aoi_id": "RU_TVER_01",
        "row": 10,
        "col": 0,
        "weight_ha": 109.40457023410796,
        "agb_t_ha": {
          "2019": 85.0,
          "2020": 87.0,
          "2021": 89.0,
          "2022": 91.0,
          "2023": 93.0,
          "2024": 95.0
        },
        "agb_sd_t_ha": {
          "2019": 4.0,
          "2020": 4.0,
          "2021": 4.0,
          "2022": 4.0,
          "2023": 4.0,
          "2024": 4.0
        },
        "valid": true
      }
    },
    {
      "type": "Feature",
      "geometry": {
        "type": "Polygon",
        "coordinates": [
          [
            [
              32.91,
              56.6175
            ],
            [
              32.974,
              56.6175
            ],
            [
              32.974,
              56.62
            ],
            [
              32.91,
              56.62
            ],
            [
              32.91,
              56.6175
            ]
          ]
        ]
      },
      "properties": {
        "cell_id": "RU_TVER_01:r11c0",
        "parent_aoi_id": "RU_TVER_01",
        "row": 11,
        "col": 0,
        "weight_ha": 109.40457023410796,
        "agb_t_ha": {
          "2019": 85.0,
          "2020": 87.0,
          "2021": 89.0,
          "2022": 91.0,
          "2023": 93.0,
          "2024": 95.0
        },
        "agb_sd_t_ha": {
          "2019": 4.0,
          "2020": 4.0,
          "2021": 4.0,
          "2022": 4.0,
          "2023": 4.0,
          "2024": 4.0
        },
        "valid": true
      }
    },
    {
      "type": "Feature",
      "geometry": {
        "type": "Polygon",
        "coordinates": [
          [
            [
              32.91,
              56.62
            ],
            [
              32.974,
              56.62
            ],
            [
              32.974,
              56.6225
            ],
            [
              32.91,
              56.6225
            ],
            [
              32.91,
              56.62
            ]
          ]
        ]
      },
      "properties": {
        "cell_id": "RU_TVER_01:r12c0",
        "parent_aoi_id": "RU_TVER_01",
        "row": 12,
        "col": 0,
        "weight_ha": 109.40457023410796,
        "agb_t_ha": {
          "2019": 85.0,
          "2020": 87.0,
          "2021": 89.0,
          "2022": 91.0,
          "2023": 93.0,
          "2024": 95.0
        },
        "agb_sd_t_ha": {
          "2019": 4.0,
          "2020": 4.0,
          "2021": 4.0,
          "2022": 4.0,
          "2023": 4.0,
          "2024": 4.0
        },
        "valid": true
      }
    },
    {
      "type": "Feature",
      "geometry": {
        "type": "Polygon",
        "coordinates": [
          [
            [
              32.91,
              56.6225
            ],
            [
              32.974,
              56.6225
            ],
            [
              32.974,
              56.625
            ],
            [
              32.91,
              56.625
            ],
            [
              32.91,
              56.6225
            ]
          ]
        ]
      },
      "properties": {
        "cell_id": "RU_TVER_01:r13c0",
        "parent_aoi_id": "RU_TVER_01",
        "row": 13,
        "col": 0,
        "weight_ha": 109.40457023410796,
        "agb_t_ha": {
          "2019": 85.0,
          "2020": 87.0,
          "2021": 89.0,
          "2022": 91.0,
          "2023": 93.0,
          "2024": 95.0
        },
        "agb_sd_t_ha": {
          "2019": 4.0,
          "2020": 4.0,
          "2021": 4.0,
          "2022": 4.0,
          "2023": 4.0,
          "2024": 4.0
        },
        "valid": true
      }
    },
    {
      "type": "Feature",
      "geometry": {
        "type": "Polygon",
        "coordinates": [
          [
            [
              32.91,
              56.625
            ],
            [
              32.974,
              56.625
            ],
            [
              32.974,
              56.6275
            ],
            [
              32.91,
              56.6275
            ],
            [
              32.91,
              56.625
            ]
          ]
        ]
      },
      "properties": {
        "cell_id": "RU_TVER_01:r14c0",
        "parent_aoi_id": "RU_TVER_01",
        "row": 14,
        "col": 0,
        "weight_ha": 109.40457023410796,
        "agb_t_ha": {
          "2019": 85.0,
          "2020": 87.0,
          "2021": 89.0,
          "2022": 91.0,
          "2023": 93.0,
          "2024": 95.0
        },
        "agb_sd_t_ha": {
          "2019": 4.0,
          "2020": 4.0,
          "2021": 4.0,
          "2022": 4.0,
          "2023": 4.0,
          "2024": 4.0
        },
        "valid": true
      }
    },
    {
      "type": "Feature",
      "geometry": {
        "type": "Polygon",
        "coordinates": [
          [
            [
              32.91,
              56.6275
            ],
            [
              32.974,
              56.6275
            ],
            [
              32.974,
              56.63
            ],
            [
              32.91,
              56.63
            ],
            [
              32.91,
              56.6275
            ]
          ]
        ]
      },
      "properties": {
        "cell_id": "RU_TVER_01:r15c0",
        "parent_aoi_id": "RU_TVER_01",
        "row": 15,
        "col": 0,
        "weight_ha": 109.40457023410796,
        "agb_t_ha": {
          "2019": 85.0,
          "2020": 87.0,
          "2021": 89.0,
          "2022": 91.0,
          "2023": 93.0,
          "2024": 95.0
        },
        "agb_sd_t_ha": {
          "2019": 4.0,
          "2020": 4.0,
          "2021": 4.0,
          "2022": 4.0,
          "2023": 4.0,
          "2024": 4.0
        },
        "valid": true
      }
    }
  ]
}
